{
  "category": "arcade_bar",
  "area": "Greater London",
  "count": 97,
  "elements": [
    {
      "type": "node",
      "id": 410949881,
      "name": "Admiral",
      "brand": "Admiral",
      "website": null,
      "postcode": null,
      "street": null,
      "city": null,
      "lat": 51.5567026,
      "lon": -0.2149508,
      "raw_tags": {
        "brand": "Admiral",
        "brand:wikidata": "Q25205850",
        "gambling": "slot_machines",
        "leisure": "adult_gaming_centre",
        "name": "Admiral"
      }
    },
    {
      "type": "node",
      "id": 420729632,
      "name": "Admiral Casino",
      "brand": "Admiral",
      "website": "https://www.admiralslots.co.uk/venues/bromley/",
      "postcode": "BR1 1EY",
      "street": "High Street",
      "city": "Bromley",
      "lat": 51.4031929,
      "lon": 0.0149982,
      "raw_tags": {
        "addr:city": "Bromley",
        "addr:housenumber": "98",
        "addr:postcode": "BR1 1EY",
        "addr:street": "High Street",
        "amenity": "casino",
        "brand": "Admiral",
        "brand:wikidata": "Q25205850",
        "check_date": "2024-08-19",
        "fhrs:id": "1720341",
        "leisure": "adult_gaming_centre",
        "name": "Admiral Casino",
        "website": "https://www.admiralslots.co.uk/venues/bromley/"
      }
    },
    {
      "type": "node",
      "id": 420783186,
      "name": "MERKUR Slots",
      "brand": "MERKUR Slots",
      "website": "https://merkurslotsvenues.com/venue/merkur-slots-bromley/",
      "postcode": "BR1 1JY",
      "street": "High Street",
      "city": "Bromley",
      "lat": 51.4018891,
      "lon": 0.0162399,
      "raw_tags": {
        "addr:city": "Bromley",
        "addr:country": "GB",
        "addr:housenumber": "63",
        "addr:postcode": "BR1 1JY",
        "addr:street": "High Street",
        "brand": "MERKUR Slots",
        "brand:wikidata": "Q22000565",
        "check_date": "2023-09-17",
        "gambling": "slot_machines",
        "leisure": "adult_gaming_centre",
        "level": "0",
        "min_age": "18",
        "name": "MERKUR Slots",
        "website": "https://merkurslotsvenues.com/venue/merkur-slots-bromley/",
        "wheelchair": "yes"
      }
    },
    {
      "type": "node",
      "id": 1540888771,
      "name": "MERKUR Slots",
      "brand": "MERKUR Slots",
      "website": null,
      "postcode": null,
      "street": null,
      "city": null,
      "lat": 51.5578538,
      "lon": -0.1190827,
      "raw_tags": {
        "amenity": "gambling",
        "brand": "MERKUR Slots",
        "brand:wikidata": "Q22000565",
        "gambling": "slot_machines",
        "leisure": "adult_gaming_centre",
        "name": "MERKUR Slots"
      }
    },
    {
      "type": "node",
      "id": 2493885132,
      "name": "Royal Casino Slots",
      "brand": null,
      "website": null,
      "postcode": null,
      "street": null,
      "city": null,
      "lat": 51.5799042,
      "lon": -0.3350104,
      "raw_tags": {
        "leisure": "adult_gaming_centre",
        "level": "0",
        "name": "Royal Casino Slots"
      }
    },
    {
      "type": "node",
      "id": 2687074260,
      "name": "Game Nation",
      "brand": null,
      "website": null,
      "postcode": null,
      "street": "Euston Road",
      "city": null,
      "lat": 51.5303826,
      "lon": -0.1226475,
      "raw_tags": {
        "addr:housenumber": "1",
        "addr:street": "Euston Road",
        "leisure": "adult_gaming_centre",
        "level": "0",
        "name": "Game Nation",
        "source": "survey"
      }
    },
    {
      "type": "node",
      "id": 3065534052,
      "name": "Crown Slots",
      "brand": null,
      "website": null,
      "postcode": null,
      "street": null,
      "city": null,
      "lat": 51.4627203,
      "lon": -0.1674976,
      "raw_tags": {
        "leisure": "adult_gaming_centre",
        "name": "Crown Slots"
      }
    },
    {
      "type": "node",
      "id": 3705335130,
      "name": "Casino Slots",
      "brand": null,
      "website": null,
      "postcode": null,
      "street": "High Street",
      "city": "Feltham",
      "lat": 51.4459357,
      "lon": -0.4104181,
      "raw_tags": {
        "addr:city": "Feltham",
        "addr:housename": "The Centre",
        "addr:street": "High Street",
        "gambling": "slot_machines",
        "leisure": "adult_gaming_centre",
        "level": "0",
        "name": "Casino Slots"
      }
    },
    {
      "type": "node",
      "id": 4303520966,
      "name": "Merkur Slots",
      "brand": null,
      "website": null,
      "postcode": null,
      "street": null,
      "city": null,
      "lat": 51.5137697,
      "lon": -0.3023838,
      "raw_tags": {
        "brand:wikidata": "Q22000565",
        "check_date": "2025-01-19",
        "leisure": "adult_gaming_centre",
        "level": "0",
        "name": "Merkur Slots",
        "wheelchair": "yes"
      }
    },
    {
      "type": "node",
      "id": 4339936029,
      "name": "Merkur Slots",
      "brand": null,
      "website": "https://merkurslotsvenues.com/venue/merkur-slots-stoke-on-trent/",
      "postcode": "E13 9AU",
      "street": "Green Street",
      "city": "London",
      "lat": 51.534354,
      "lon": 0.0360093,
      "raw_tags": {
        "addr:city": "London",
        "addr:housenumber": "403-405",
        "addr:postcode": "E13 9AU",
        "addr:street": "Green Street",
        "brand:wikidata": "Q22000565",
        "leisure": "adult_gaming_centre",
        "level": "0",
        "name": "Merkur Slots",
        "website": "https://merkurslotsvenues.com/venue/merkur-slots-stoke-on-trent/"
      }
    },
    {
      "type": "node",
      "id": 4347939468,
      "name": "City Slots",
      "brand": null,
      "website": null,
      "postcode": null,
      "street": null,
      "city": null,
      "lat": 51.4636017,
      "lon": -0.1334284,
      "raw_tags": {
        "leisure": "adult_gaming_centre",
        "name": "City Slots"
      }
    },
    {
      "type": "node",
      "id": 4404156366,
      "name": "City Slots",
      "brand": null,
      "website": null,
      "postcode": null,
      "street": null,
      "city": null,
      "lat": 51.4839955,
      "lon": -0.2012255,
      "raw_tags": {
        "leisure": "adult_gaming_centre",
        "name": "City Slots"
      }
    },
    {
      "type": "node",
      "id": 5065714821,
      "name": "Red Nine",
      "brand": null,
      "website": null,
      "postcode": "SE5 8RZ",
      "street": "Denmark Hill",
      "city": "London",
      "lat": 51.4737711,
      "lon": -0.0933229,
      "raw_tags": {
        "addr:city": "London",
        "addr:housenumber": "14",
        "addr:postcode": "SE5 8RZ",
        "addr:street": "Denmark Hill",
        "check_date": "2025-08-20",
        "leisure": "adult_gaming_centre",
        "name": "Red Nine",
        "source": "survey"
      }
    },
    {
      "type": "node",
      "id": 5068398476,
      "name": "Admiral",
      "brand": "Admiral",
      "website": null,
      "postcode": null,
      "street": null,
      "city": null,
      "lat": 51.4876176,
      "lon": -0.095276,
      "raw_tags": {
        "brand": "Admiral",
        "brand:wikidata": "Q25205850",
        "check_date": "2024-08-19",
        "contact:website": "https://www.admiralslots.co.uk/venues/walworth/",
        "gambling": "slot_machines",
        "leisure": "adult_gaming_centre",
        "name": "Admiral"
      }
    },
    {
      "type": "node",
      "id": 5341698138,
      "name": "A Slots",
      "brand": null,
      "website": null,
      "postcode": null,
      "street": null,
      "city": null,
      "lat": 51.5097707,
      "lon": -0.1235751,
      "raw_tags": {
        "leisure": "adult_gaming_centre",
        "name": "A Slots",
        "old_name": "William Hill"
      }
    },
    {
      "type": "node",
      "id": 6498189136,
      "name": "SilverTime",
      "brand": null,
      "website": null,
      "postcode": null,
      "street": "Edgware Road",
      "city": null,
      "lat": 51.5228479,
      "lon": -0.1738619,
      "raw_tags": {
        "addr:housenumber": "426",
        "addr:street": "Edgware Road",
        "check_date": "2024-06-14",
        "leisure": "adult_gaming_centre",
        "name": "SilverTime"
      }
    },
    {
      "type": "node",
      "id": 6904809852,
      "name": "Cashino",
      "brand": null,
      "website": null,
      "postcode": null,
      "street": "High Road Leytonstone",
      "city": "London",
      "lat": 51.5674442,
      "lon": 0.0104357,
      "raw_tags": {
        "addr:city": "London",
        "addr:housenumber": "795",
        "addr:street": "High Road Leytonstone",
        "gambling": "slot_machines",
        "leisure": "adult_gaming_centre",
        "level": "0",
        "name": "Cashino",
        "not:amenity": "casino"
      }
    },
    {
      "type": "node",
      "id": 6952418119,
      "name": "Merkur Slots",
      "brand": "MERKUR Slots",
      "website": "https://merkurslotsvenues.com/venue/merkur-slots-north-finchley/",
      "postcode": "N12 8PT",
      "street": "High Road",
      "city": "London",
      "lat": 51.6175974,
      "lon": -0.176998,
      "raw_tags": {
        "addr:city": "London",
        "addr:housenumber": "847",
        "addr:postcode": "N12 8PT",
        "addr:street": "High Road",
        "brand": "MERKUR Slots",
        "brand:wikidata": "Q22000565",
        "leisure": "adult_gaming_centre",
        "name": "Merkur Slots",
        "opening_hours": "Mo-Su 08:00-02:00",
        "operator": "MERKUR Casino UK",
        "phone": "+44 20 8189 7426",
        "website": "https://merkurslotsvenues.com/venue/merkur-slots-north-finchley/"
      }
    },
    {
      "type": "node",
      "id": 7072526826,
      "name": "MERKUR Slots",
      "brand": "MERKUR Slots",
      "website": null,
      "postcode": null,
      "street": "Tottenham Court Road",
      "city": "London",
      "lat": 51.5203514,
      "lon": -0.1343132,
      "raw_tags": {
        "addr:city": "London",
        "addr:housenumber": "69",
        "addr:street": "Tottenham Court Road",
        "brand": "MERKUR Slots",
        "brand:wikidata": "Q22000565",
        "gambling": "slot_machines",
        "leisure": "adult_gaming_centre",
        "name": "MERKUR Slots",
        "source": "Bing;photograph"
      }
    },
    {
      "type": "node",
      "id": 7126677036,
      "name": "Silvertime Casino",
      "brand": null,
      "website": null,
      "postcode": null,
      "street": "Pembridge Road",
      "city": null,
      "lat": 51.5093892,
      "lon": -0.1970396,
      "raw_tags": {
        "addr:housenumber": "10",
        "addr:street": "Pembridge Road",
        "check_date": "2025-05-10",
        "leisure": "adult_gaming_centre",
        "name": "Silvertime Casino",
        "phone": "+44 20 7229 4531"
      }
    },
    {
      "type": "node",
      "id": 7795758636,
      "name": "Tirana Pool Club & Coffee Bar",
      "brand": null,
      "website": null,
      "postcode": "N13 6JT",
      "street": "Green Lanes",
      "city": "London",
      "lat": 51.6084237,
      "lon": -0.1100658,
      "raw_tags": {
        "addr:city": "London",
        "addr:housenumber": "6",
        "addr:postcode": "N13 6JT",
        "addr:street": "Green Lanes",
        "amenity": "cafe",
        "leisure": "adult_gaming_centre",
        "name": "Tirana Pool Club & Coffee Bar",
        "sport": "billiards"
      }
    },
    {
      "type": "node",
      "id": 7804509141,
      "name": "Silver Time",
      "brand": null,
      "website": null,
      "postcode": null,
      "street": "Earl's Court Road",
      "city": null,
      "lat": 51.4925881,
      "lon": -0.1934652,
      "raw_tags": {
        "addr:housenumber": "169",
        "addr:street": "Earl's Court Road",
        "leisure": "adult_gaming_centre",
        "name": "Silver Time"
      }
    },
    {
      "type": "node",
      "id": 7804693873,
      "name": "Navrtar",
      "brand": null,
      "website": null,
      "postcode": null,
      "street": null,
      "city": null,
      "lat": 51.5137015,
      "lon": -0.3066658,
      "raw_tags": {
        "check_date": "2024-10-02",
        "leisure": "adult_gaming_centre",
        "level": "0",
        "name": "Navrtar",
        "wheelchair": "yes"
      }
    },
    {
      "type": "node",
      "id": 8648981734,
      "name": "Admiral",
      "brand": "Admiral",
      "website": null,
      "postcode": "SE6 4HW",
      "street": "Rushey Green",
      "city": "London",
      "lat": 51.4467136,
      "lon": -0.0191832,
      "raw_tags": {
        "addr:city": "London",
        "addr:housenumber": "116-118",
        "addr:postcode": "SE6 4HW",
        "addr:street": "Rushey Green",
        "amenity": "casino",
        "brand": "Admiral",
        "brand:wikidata": "Q25205850",
        "check_date": "2025-07-28",
        "contact:website": "https://www.admiralslots.co.uk/venues/catford/",
        "fhrs:id": "1598679",
        "gambling": "slot_machines",
        "leisure": "adult_gaming_centre",
        "level": "0",
        "name": "Admiral",
        "source:addr": "FHRS Open Data"
      }
    },
    {
      "type": "node",
      "id": 8688628634,
      "name": "Game Nation",
      "brand": null,
      "website": null,
      "postcode": null,
      "street": null,
      "city": null,
      "lat": 51.4273818,
      "lon": -0.167276,
      "raw_tags": {
        "leisure": "adult_gaming_centre",
        "name": "Game Nation"
      }
    },
    {
      "type": "node",
      "id": 8946509231,
      "name": "Admiral",
      "brand": "Admiral",
      "website": null,
      "postcode": null,
      "street": null,
      "city": null,
      "lat": 51.3661724,
      "lon": -0.1941697,
      "raw_tags": {
        "amenity": "casino",
        "brand": "Admiral",
        "brand:wikidata": "Q25205850",
        "check_date": "2025-08-19",
        "check_date:opening_hours": "2025-08-19",
        "contact:website": "https://www.admiralslots.co.uk/venues/sutton/",
        "gambling": "slot_machines",
        "leisure": "adult_gaming_centre",
        "name": "Admiral",
        "opening_hours": "24/7"
      }
    },
    {
      "type": "node",
      "id": 9253386347,
      "name": "MERKUR Slots",
      "brand": "MERKUR Slots",
      "website": null,
      "postcode": "W6 0QW",
      "street": "King Street",
      "city": "London",
      "lat": 51.4926386,
      "lon": -0.2295749,
      "raw_tags": {
        "addr:city": "London",
        "addr:housenumber": "86",
        "addr:postcode": "W6 0QW",
        "addr:street": "King Street",
        "brand": "MERKUR Slots",
        "brand:wikidata": "Q22000565",
        "check_date": "2025-07-26",
        "fhrs:id": "1153307",
        "gambling": "slot_machines",
        "leisure": "adult_gaming_centre",
        "name": "MERKUR Slots",
        "old_name": "MERKUR Cashino",
        "source:addr:postcode": "FHRS Open Data",
        "source:name": "FHRS Open Data"
      }
    },
    {
      "type": "node",
      "id": 9301348720,
      "name": "In2Win",
      "brand": null,
      "website": "https://europeanportraitstudios.com/",
      "postcode": null,
      "street": null,
      "city": null,
      "lat": 51.4700954,
      "lon": -0.3560367,
      "raw_tags": {
        "leisure": "adult_gaming_centre",
        "name": "In2Win",
        "website": "https://europeanportraitstudios.com/"
      }
    },
    {
      "type": "node",
      "id": 9439167475,
      "name": "Merkurs",
      "brand": null,
      "website": null,
      "postcode": null,
      "street": "Edgware Road",
      "city": null,
      "lat": 51.5176104,
      "lon": -0.166392,
      "raw_tags": {
        "addr:street": "Edgware Road",
        "check_date": "2024-02-11",
        "leisure": "adult_gaming_centre",
        "name": "Merkurs"
      }
    },
    {
      "type": "node",
      "id": 9607793870,
      "name": "Admiral",
      "brand": "Admiral",
      "website": null,
      "postcode": null,
      "street": null,
      "city": null,
      "lat": 51.4625307,
      "lon": -0.0104714,
      "raw_tags": {
        "brand": "Admiral",
        "brand:wikidata": "Q25205850",
        "brand:wikipedia": "en:Admiral (gambling)",
        "check_date": "2024-08-19",
        "contact:website": "https://www.admiralslots.co.uk/venues/lewisham/",
        "gambling": "slot_machines",
        "leisure": "adult_gaming_centre",
        "name": "Admiral"
      }
    },
    {
      "type": "node",
      "id": 9620351976,
      "name": "Admiral",
      "brand": "Admiral",
      "website": null,
      "postcode": null,
      "street": "High Road",
      "city": "London",
      "lat": 51.5908444,
      "lon": -0.1040998,
      "raw_tags": {
        "addr:city": "London",
        "addr:street": "High Road",
        "addr:suburb": "Wood Green",
        "brand": "Admiral",
        "brand:wikidata": "Q25205850",
        "brand:wikipedia": "en:Admiral (gambling)",
        "check_date": "2024-08-19",
        "contact:website": "https://www.admiralslots.co.uk/venues/wood-green-9-high-road/",
        "gambling": "slot_machines",
        "leisure": "adult_gaming_centre",
        "name": "Admiral"
      }
    },
    {
      "type": "node",
      "id": 9620351978,
      "name": "Little Vegas",
      "brand": null,
      "website": null,
      "postcode": null,
      "street": "High Road",
      "city": "London",
      "lat": 51.591047,
      "lon": -0.1042907,
      "raw_tags": {
        "addr:city": "London",
        "addr:street": "High Road",
        "addr:suburb": "Wood Green",
        "leisure": "adult_gaming_centre",
        "name": "Little Vegas"
      }
    },
    {
      "type": "node",
      "id": 9802334174,
      "name": "Maggy's Slots",
      "brand": null,
      "website": null,
      "postcode": null,
      "street": "Broadway",
      "city": null,
      "lat": 51.5419816,
      "lon": 0.0023903,
      "raw_tags": {
        "addr:housenumber": "76",
        "addr:street": "Broadway",
        "leisure": "adult_gaming_centre",
        "name": "Maggy's Slots"
      }
    },
    {
      "type": "node",
      "id": 10084913349,
      "name": "Merkur Slots",
      "brand": null,
      "website": null,
      "postcode": null,
      "street": null,
      "city": null,
      "lat": 51.4695132,
      "lon": -0.3599326,
      "raw_tags": {
        "brand:wikidata": "Q22000565",
        "leisure": "adult_gaming_centre",
        "name": "Merkur Slots"
      }
    },
    {
      "type": "node",
      "id": 10095832982,
      "name": "Admiral",
      "brand": "Admiral",
      "website": null,
      "postcode": "SE18 6LF",
      "street": "Powis Street",
      "city": "London",
      "lat": 51.4910201,
      "lon": 0.0680738,
      "raw_tags": {
        "addr:city": "London",
        "addr:housenumber": "12",
        "addr:postcode": "SE18 6LF",
        "addr:street": "Powis Street",
        "amenity": "casino",
        "brand": "Admiral",
        "brand:wikidata": "Q25205850",
        "check_date": "2024-08-19",
        "contact:website": "https://www.admiralslots.co.uk/venues/woolwich-powis-street/",
        "gambling": "slot_machines",
        "leisure": "adult_gaming_centre",
        "name": "Admiral"
      }
    },
    {
      "type": "node",
      "id": 10166945319,
      "name": "Maggy's Slots",
      "brand": null,
      "website": null,
      "postcode": "E16 1EN",
      "street": "Barking Road",
      "city": "London",
      "lat": 51.5176841,
      "lon": 0.0128423,
      "raw_tags": {
        "addr:city": "London",
        "addr:housenumber": "144",
        "addr:postcode": "E16 1EN",
        "addr:street": "Barking Road",
        "leisure": "adult_gaming_centre",
        "name": "Maggy's Slots"
      }
    },
    {
      "type": "node",
      "id": 10655498056,
      "name": "Admiral",
      "brand": "Admiral",
      "website": "https://www.admiralslots.co.uk/venues/harrow/",
      "postcode": null,
      "street": null,
      "city": null,
      "lat": 51.58134,
      "lon": -0.3332351,
      "raw_tags": {
        "brand": "Admiral",
        "brand:wikidata": "Q25205850",
        "check_date": "2024-08-19",
        "check_date:opening_hours": "2024-08-19",
        "gambling": "slot_machines",
        "leisure": "adult_gaming_centre",
        "name": "Admiral",
        "opening_hours": "Mo-Su 00:00-24:00",
        "website": "https://www.admiralslots.co.uk/venues/harrow/"
      }
    },
    {
      "type": "node",
      "id": 10705670038,
      "name": "Willam Hill",
      "brand": null,
      "website": "https://www.williamhill.com/",
      "postcode": null,
      "street": null,
      "city": null,
      "lat": 51.5870196,
      "lon": 0.0695811,
      "raw_tags": {
        "leisure": "adult_gaming_centre",
        "name": "Willam Hill",
        "opening_hours": "Mo-Sa 09:00-22:00, Su 09:30-21:00",
        "phone": "08705181715",
        "source": "local knowledge;survey;streetlevel imagery",
        "website": "https://www.williamhill.com/"
      }
    },
    {
      "type": "node",
      "id": 10751832694,
      "name": "Admiral",
      "brand": "Admiral",
      "website": "https://www.admiralslots.co.uk/venues/ilford/",
      "postcode": "IG1 1DL",
      "street": "High Road",
      "city": "Ilford",
      "lat": 51.5582672,
      "lon": 0.0704651,
      "raw_tags": {
        "addr:city": "Ilford",
        "addr:housenumber": "58-58A",
        "addr:postcode": "IG1 1DL",
        "addr:street": "High Road",
        "brand": "Admiral",
        "brand:wikidata": "Q25205850",
        "check_date": "2024-08-19",
        "gambling": "slot_machines",
        "leisure": "adult_gaming_centre",
        "name": "Admiral",
        "website": "https://www.admiralslots.co.uk/venues/ilford/"
      }
    },
    {
      "type": "node",
      "id": 10974526274,
      "name": "Admiral",
      "brand": "Admiral",
      "website": "https://www.admiralslots.co.uk/venues/eltham/",
      "postcode": null,
      "street": null,
      "city": null,
      "lat": 51.4508704,
      "lon": 0.0535093,
      "raw_tags": {
        "brand": "Admiral",
        "brand:wikidata": "Q25205850",
        "check_date": "2024-08-19",
        "check_date:opening_hours": "2024-08-19",
        "gambling": "slot_machines",
        "leisure": "adult_gaming_centre",
        "name": "Admiral",
        "opening_hours": "Mo-We 09:00-23:00; Th 09:00-24:00; Fr-Sa 00:00-24:00; Su 00:00-23:00",
        "website": "https://www.admiralslots.co.uk/venues/eltham/"
      }
    },
    {
      "type": "node",
      "id": 11063748425,
      "name": "MERKUR Slots",
      "brand": "MERKUR Slots",
      "website": null,
      "postcode": null,
      "street": "Ballards Lane",
      "city": "London",
      "lat": 51.6028679,
      "lon": -0.1912331,
      "raw_tags": {
        "addr:city": "London",
        "addr:street": "Ballards Lane",
        "brand": "MERKUR Slots",
        "brand:wikidata": "Q22000565",
        "gambling": "slot_machines",
        "leisure": "adult_gaming_centre",
        "name": "MERKUR Slots"
      }
    },
    {
      "type": "node",
      "id": 11066794432,
      "name": "Palace Amusements",
      "brand": null,
      "website": null,
      "postcode": null,
      "street": null,
      "city": null,
      "lat": 51.4029113,
      "lon": 0.0150566,
      "raw_tags": {
        "leisure": "adult_gaming_centre",
        "name": "Palace Amusements"
      }
    },
    {
      "type": "node",
      "id": 11107539281,
      "name": "Admiral",
      "brand": "Admiral",
      "website": "https://www.admiralslots.co.uk/venues/wood-green-117-high-road/",
      "postcode": null,
      "street": "High Road",
      "city": "London",
      "lat": 51.5932771,
      "lon": -0.1072602,
      "raw_tags": {
        "addr:city": "London",
        "addr:street": "High Road",
        "addr:suburb": "Wood Green",
        "brand": "Admiral",
        "brand:wikidata": "Q25205850",
        "check_date": "2024-08-19",
        "gambling": "slot_machines",
        "leisure": "adult_gaming_centre",
        "name": "Admiral",
        "website": "https://www.admiralslots.co.uk/venues/wood-green-117-high-road/"
      }
    },
    {
      "type": "node",
      "id": 11107539290,
      "name": "MERKUR Slots",
      "brand": "MERKUR Slots",
      "website": null,
      "postcode": null,
      "street": "High Road",
      "city": "London",
      "lat": 51.5928422,
      "lon": -0.1066379,
      "raw_tags": {
        "addr:city": "London",
        "addr:street": "High Road",
        "addr:suburb": "Wood Green",
        "brand": "MERKUR Slots",
        "brand:wikidata": "Q22000565",
        "gambling": "slot_machines",
        "leisure": "adult_gaming_centre",
        "name": "MERKUR Slots"
      }
    },
    {
      "type": "node",
      "id": 11107548008,
      "name": "Game Nation",
      "brand": null,
      "website": null,
      "postcode": null,
      "street": "High Road",
      "city": "London",
      "lat": 51.591857,
      "lon": -0.1052331,
      "raw_tags": {
        "addr:city": "London",
        "addr:street": "High Road",
        "addr:suburb": "Wood Green",
        "leisure": "adult_gaming_centre",
        "name": "Game Nation"
      }
    },
    {
      "type": "node",
      "id": 11380985016,
      "name": "Admiral",
      "brand": "Admiral",
      "website": "https://www.admiralslots.co.uk/venues/hayes/",
      "postcode": "UB3 4DD",
      "street": "Station Road",
      "city": "Hayes",
      "lat": 51.5061398,
      "lon": -0.4192762,
      "raw_tags": {
        "addr:city": "Hayes",
        "addr:housenumber": "32-36",
        "addr:postcode": "UB3 4DD",
        "addr:street": "Station Road",
        "brand": "Admiral",
        "brand:wikidata": "Q25205850",
        "check_date": "2024-08-19",
        "fhrs:id": "1170291",
        "gambling": "slot_machines",
        "leisure": "adult_gaming_centre",
        "name": "Admiral",
        "source:addr": "FHRS Open Data",
        "website": "https://www.admiralslots.co.uk/venues/hayes/"
      }
    },
    {
      "type": "node",
      "id": 11398876278,
      "name": "Cashino Gaming",
      "brand": null,
      "website": null,
      "postcode": null,
      "street": null,
      "city": null,
      "lat": 51.4009527,
      "lon": -0.2556936,
      "raw_tags": {
        "leisure": "adult_gaming_centre",
        "name": "Cashino Gaming",
        "survey:date": "2020-05-25"
      }
    },
    {
      "type": "node",
      "id": 11414591403,
      "name": "@GamingFun",
      "brand": null,
      "website": null,
      "postcode": null,
      "street": "High Street North",
      "city": "London",
      "lat": 51.5342236,
      "lon": 0.0536402,
      "raw_tags": {
        "addr:city": "London",
        "addr:street": "High Street North",
        "addr:suburb": "East Ham",
        "leisure": "adult_gaming_centre",
        "name": "@GamingFun"
      }
    },
    {
      "type": "node",
      "id": 11534808270,
      "name": "Admiral",
      "brand": "Admiral",
      "website": "https://www.admiralslots.co.uk/venues/ealing-broadway/",
      "postcode": null,
      "street": null,
      "city": null,
      "lat": 51.513893,
      "lon": -0.3014791,
      "raw_tags": {
        "brand": "Admiral",
        "brand:wikidata": "Q25205850",
        "check_date": "2024-12-20",
        "check_date:opening_hours": "2024-08-19",
        "gambling": "slot_machines",
        "leisure": "adult_gaming_centre",
        "level": "0",
        "name": "Admiral",
        "opening_hours": "Mo-Su 00:00-24:00",
        "website": "https://www.admiralslots.co.uk/venues/ealing-broadway/"
      }
    },
    {
      "type": "node",
      "id": 11534812766,
      "name": "Admiral",
      "brand": "Admiral",
      "website": "https://www.admiralslots.co.uk/venues/acton/",
      "postcode": null,
      "street": null,
      "city": null,
      "lat": 51.5071597,
      "lon": -0.2703012,
      "raw_tags": {
        "addr:floor": "G",
        "brand": "Admiral",
        "brand:wikidata": "Q25205850",
        "check_date": "2024-08-19",
        "gambling": "slot_machines",
        "leisure": "adult_gaming_centre",
        "level": "0",
        "name": "Admiral",
        "website": "https://www.admiralslots.co.uk/venues/acton/"
      }
    },
    {
      "type": "node",
      "id": 11942698952,
      "name": "Royal Casino Slots",
      "brand": null,
      "website": null,
      "postcode": "N4 1AN",
      "street": "Green Lanes",
      "city": "London",
      "lat": 51.5817719,
      "lon": -0.0997548,
      "raw_tags": {
        "addr:city": "London",
        "addr:housenumber": "519",
        "addr:postcode": "N4 1AN",
        "addr:street": "Green Lanes",
        "addr:suburb": "Harringay",
        "leisure": "adult_gaming_centre",
        "name": "Royal Casino Slots"
      }
    },
    {
      "type": "node",
      "id": 11942698954,
      "name": "Admiral",
      "brand": "Admiral",
      "website": "https://www.admiralslots.co.uk/venues/haringey/",
      "postcode": "N4 1AN",
      "street": "Green Lanes",
      "city": "London",
      "lat": 51.581607,
      "lon": -0.0997209,
      "raw_tags": {
        "addr:city": "London",
        "addr:housenumber": "513",
        "addr:postcode": "N4 1AN",
        "addr:street": "Green Lanes",
        "addr:suburb": "Harringay",
        "brand": "Admiral",
        "brand:wikidata": "Q25205850",
        "check_date": "2024-08-19",
        "check_date:opening_hours": "2024-08-19",
        "gambling": "slot_machines",
        "leisure": "adult_gaming_centre",
        "name": "Admiral",
        "opening_hours": "Mo-Su 09:00-23:00",
        "phone": "+44 20 8347 5238",
        "website": "https://www.admiralslots.co.uk/venues/haringey/"
      }
    },
    {
      "type": "node",
      "id": 11945307752,
      "name": "Bigbux",
      "brand": null,
      "website": null,
      "postcode": "N15 5NS",
      "street": "West Green Road",
      "city": "London",
      "lat": 51.5845851,
      "lon": -0.0761619,
      "raw_tags": {
        "addr:city": "London",
        "addr:housenumber": "72",
        "addr:postcode": "N15 5NS",
        "addr:street": "West Green Road",
        "leisure": "adult_gaming_centre",
        "name": "Bigbux"
      }
    },
    {
      "type": "node",
      "id": 11979998202,
      "name": "Admiral",
      "brand": "Admiral",
      "website": "https://www.admiralslots.co.uk/venues/dalston/",
      "postcode": "E8 2JS",
      "street": "Kingsland High Street",
      "city": "London",
      "lat": 51.5484624,
      "lon": -0.0755622,
      "raw_tags": {
        "addr:city": "London",
        "addr:housenumber": "67",
        "addr:postcode": "E8 2JS",
        "addr:street": "Kingsland High Street",
        "brand": "Admiral",
        "brand:wikidata": "Q25205850",
        "check_date": "2024-08-19",
        "gambling": "slot_machines",
        "leisure": "adult_gaming_centre",
        "name": "Admiral",
        "website": "https://www.admiralslots.co.uk/venues/dalston/"
      }
    },
    {
      "type": "node",
      "id": 12123661112,
      "name": "Little Vegas",
      "brand": null,
      "website": null,
      "postcode": null,
      "street": null,
      "city": null,
      "lat": 51.4924688,
      "lon": -0.2313083,
      "raw_tags": {
        "leisure": "adult_gaming_centre",
        "name": "Little Vegas"
      }
    },
    {
      "type": "node",
      "id": 12123661117,
      "name": "Royal Casino Slots",
      "brand": null,
      "website": null,
      "postcode": null,
      "street": null,
      "city": null,
      "lat": 51.4926558,
      "lon": -0.2304889,
      "raw_tags": {
        "leisure": "adult_gaming_centre",
        "name": "Royal Casino Slots"
      }
    },
    {
      "type": "node",
      "id": 12123661127,
      "name": "Admiral",
      "brand": "Admiral",
      "website": null,
      "postcode": null,
      "street": null,
      "city": null,
      "lat": 51.4924312,
      "lon": -0.2291974,
      "raw_tags": {
        "brand": "Admiral",
        "brand:wikidata": "Q25205850",
        "gambling": "slot_machines",
        "leisure": "adult_gaming_centre",
        "name": "Admiral"
      }
    },
    {
      "type": "node",
      "id": 12426265668,
      "name": "Admiral",
      "brand": "Admiral",
      "website": null,
      "postcode": null,
      "street": null,
      "city": null,
      "lat": 51.4615818,
      "lon": -0.1157502,
      "raw_tags": {
        "brand": "Admiral",
        "brand:wikidata": "Q25205850",
        "check_date": "2025-06-20",
        "gambling": "slot_machines",
        "leisure": "adult_gaming_centre",
        "name": "Admiral"
      }
    },
    {
      "type": "node",
      "id": 12572448566,
      "name": "MERKUR Slots",
      "brand": "MERKUR Slots",
      "website": "https://merkurslotsvenues.com/venue/merkur-slots-camberwell-church-street/",
      "postcode": "SE5 8QZ",
      "street": "Camberwell Church Street",
      "city": "London",
      "lat": 51.4737063,
      "lon": -0.0896433,
      "raw_tags": {
        "addr:city": "London",
        "addr:country": "GB",
        "addr:housenumber": "48-50",
        "addr:postcode": "SE5 8QZ",
        "addr:street": "Camberwell Church Street",
        "brand": "MERKUR Slots",
        "brand:wikidata": "Q22000565",
        "gambling": "slot_machines",
        "leisure": "adult_gaming_centre",
        "name": "MERKUR Slots",
        "website": "https://merkurslotsvenues.com/venue/merkur-slots-camberwell-church-street/"
      }
    },
    {
      "type": "node",
      "id": 12572476244,
      "name": "Admiral",
      "brand": "Admiral",
      "website": null,
      "postcode": "SE5 8RZ",
      "street": "Denmark Hill",
      "city": "London",
      "lat": 51.4732387,
      "lon": -0.0933658,
      "raw_tags": {
        "addr:city": "London",
        "addr:country": "GB",
        "addr:housenumber": "38",
        "addr:postcode": "SE5 8RZ",
        "addr:street": "Denmark Hill",
        "brand": "Admiral",
        "brand:wikidata": "Q25205850",
        "check_date": "2025-08-17",
        "contact:website": "https://www.admiralslots.co.uk/venues/camberwell/",
        "gambling": "slot_machines",
        "leisure": "adult_gaming_centre",
        "name": "Admiral",
        "opening_hours": "24/7"
      }
    },
    {
      "type": "node",
      "id": 12647025638,
      "name": "Gaming Room",
      "brand": null,
      "website": null,
      "postcode": null,
      "street": null,
      "city": null,
      "lat": 51.5705695,
      "lon": -0.2950144,
      "raw_tags": {
        "leisure": "adult_gaming_centre",
        "name": "Gaming Room"
      }
    },
    {
      "type": "node",
      "id": 12862441972,
      "name": "MERKUR Slots",
      "brand": "MERKUR Slots",
      "website": null,
      "postcode": null,
      "street": null,
      "city": null,
      "lat": 51.5759129,
      "lon": 0.1824591,
      "raw_tags": {
        "brand": "MERKUR Slots",
        "brand:wikidata": "Q22000565",
        "gambling": "slot_machines",
        "leisure": "adult_gaming_centre",
        "name": "MERKUR Slots"
      }
    },
    {
      "type": "node",
      "id": 13017340033,
      "name": null,
      "brand": null,
      "website": null,
      "postcode": null,
      "street": null,
      "city": null,
      "lat": 51.6147142,
      "lon": -0.2753703,
      "raw_tags": {
        "leisure": "adult_gaming_centre"
      }
    },
    {
      "type": "way",
      "id": 31310854,
      "name": "Admiral",
      "brand": "Admiral",
      "website": "https://www.admiralslots.co.uk/venues/islington/",
      "postcode": null,
      "street": "Islington High Street",
      "city": null,
      "lat": 51.5323291,
      "lon": -0.1065384,
      "raw_tags": {
        "addr:street": "Islington High Street",
        "brand": "Admiral",
        "brand:wikidata": "Q25205850",
        "building": "yes",
        "check_date": "2024-08-19",
        "check_date:opening_hours": "2024-08-19",
        "gambling": "slot_machines",
        "leisure": "adult_gaming_centre",
        "level": "-1",
        "name": "Admiral",
        "opening_hours": "Mo-Sa 00:00-24:00; Su 00:00-23:00",
        "website": "https://www.admiralslots.co.uk/venues/islington/"
      }
    },
    {
      "type": "way",
      "id": 119438280,
      "name": null,
      "brand": null,
      "website": null,
      "postcode": "N1 9EN",
      "street": "Chapel Market",
      "city": "London",
      "lat": 51.5337017,
      "lon": -0.1076589,
      "raw_tags": {
        "addr:city": "London",
        "addr:housenumber": "37",
        "addr:postcode": "N1 9EN",
        "addr:street": "Chapel Market",
        "building": "yes",
        "leisure": "adult_gaming_centre"
      }
    },
    {
      "type": "way",
      "id": 122462284,
      "name": "MERKUR Slots",
      "brand": "MERKUR Slots",
      "website": "https://merkurslotsvenues.com/venue/merkur-slots-dagenham/",
      "postcode": null,
      "street": "Heathway",
      "city": null,
      "lat": 51.5406927,
      "lon": 0.1477105,
      "raw_tags": {
        "addr:housenumber": "247",
        "addr:street": "Heathway",
        "brand": "MERKUR Slots",
        "brand:wikidata": "Q22000565",
        "building": "yes",
        "gambling": "slot_machines",
        "leisure": "adult_gaming_centre",
        "name": "MERKUR Slots",
        "website": "https://merkurslotsvenues.com/venue/merkur-slots-dagenham/"
      }
    },
    {
      "type": "way",
      "id": 122597778,
      "name": "Adult Gaming Cenrew",
      "brand": null,
      "website": null,
      "postcode": null,
      "street": "Heathway",
      "city": null,
      "lat": 51.5416427,
      "lon": 0.1481655,
      "raw_tags": {
        "addr:housenumber": "248",
        "addr:street": "Heathway",
        "building": "yes",
        "layer": "1",
        "leisure": "adult_gaming_centre",
        "name": "Adult Gaming Cenrew"
      }
    },
    {
      "type": "way",
      "id": 123092716,
      "name": "MERKUR Slots",
      "brand": "MERKUR Slots",
      "website": null,
      "postcode": "NW6 4JD",
      "street": "Kilburn High Road",
      "city": "London",
      "lat": 51.5399361,
      "lon": -0.1953731,
      "raw_tags": {
        "addr:city": "London",
        "addr:housenumber": "130",
        "addr:postcode": "NW6 4JD",
        "addr:street": "Kilburn High Road",
        "brand": "MERKUR Slots",
        "brand:wikidata": "Q22000565",
        "building": "yes",
        "fhrs:id": "1648459",
        "gambling": "slot_machines",
        "leisure": "adult_gaming_centre",
        "name": "MERKUR Slots",
        "old_name": "Cashino",
        "source:addr:postcode": "FHRS Open Data",
        "source:name": "FHRS Open Data"
      }
    },
    {
      "type": "way",
      "id": 140334142,
      "name": "Play 2 Win",
      "brand": null,
      "website": null,
      "postcode": null,
      "street": "Victoria Street",
      "city": null,
      "lat": 51.4964978,
      "lon": -0.144325,
      "raw_tags": {
        "addr:housenumber": "197",
        "addr:street": "Victoria Street",
        "building": "yes",
        "check_date": "2023-09-17",
        "leisure": "adult_gaming_centre",
        "name": "Play 2 Win"
      }
    },
    {
      "type": "way",
      "id": 150568006,
      "name": "Cashino",
      "brand": null,
      "website": null,
      "postcode": null,
      "street": "North End Road",
      "city": null,
      "lat": 51.4838108,
      "lon": -0.201622,
      "raw_tags": {
        "addr:housenumber": "272",
        "addr:street": "North End Road",
        "building": "yes",
        "leisure": "adult_gaming_centre",
        "name": "Cashino",
        "opening_hours": "24/7"
      }
    },
    {
      "type": "way",
      "id": 164512943,
      "name": "City Slots",
      "brand": null,
      "website": null,
      "postcode": null,
      "street": "High Street",
      "city": "London",
      "lat": 51.5833426,
      "lon": -0.0261586,
      "raw_tags": {
        "addr:city": "London",
        "addr:housenumber": "124",
        "addr:street": "High Street",
        "addr:suburb": "Walthamstow",
        "building": "retail",
        "leisure": "adult_gaming_centre",
        "name": "City Slots"
      }
    },
    {
      "type": "way",
      "id": 197065387,
      "name": "Admiral",
      "brand": "Admiral",
      "website": null,
      "postcode": "CR0 1TJ",
      "street": "North End",
      "city": "Croydon",
      "lat": 51.375613,
      "lon": -0.1016221,
      "raw_tags": {
        "addr:city": "Croydon",
        "addr:housenumber": "71",
        "addr:postcode": "CR0 1TJ",
        "addr:street": "North End",
        "amenity": "casino",
        "brand": "Admiral",
        "brand:wikidata": "Q25205850",
        "building": "yes",
        "check_date": "2024-08-19",
        "contact:website": "https://www.admiralslots.co.uk/venues/croydon/",
        "fhrs:authority": "Croydon",
        "fhrs:id": "877529",
        "gambling": "slot_machines",
        "leisure": "adult_gaming_centre",
        "name": "Admiral",
        "source": "survey;https://ratings.food.gov.uk/OpenDataFiles/FHRS507en-GB.xml"
      }
    },
    {
      "type": "way",
      "id": 199622465,
      "name": "Little Vegas",
      "brand": null,
      "website": null,
      "postcode": null,
      "street": "High Street",
      "city": "London",
      "lat": 51.5831489,
      "lon": -0.0275369,
      "raw_tags": {
        "addr:city": "London",
        "addr:country": "GB",
        "addr:housenumber": "133",
        "addr:street": "High Street",
        "addr:suburb": "Walthamstow",
        "building": "yes",
        "leisure": "adult_gaming_centre",
        "name": "Little Vegas",
        "was:name": "Betfred"
      }
    },
    {
      "type": "way",
      "id": 204738604,
      "name": "Admiral",
      "brand": "Admiral",
      "website": null,
      "postcode": null,
      "street": null,
      "city": null,
      "lat": 51.4633524,
      "lon": -0.1683303,
      "raw_tags": {
        "brand": "Admiral",
        "brand:wikidata": "Q25205850",
        "check_date": "2024-08-19",
        "contact:website": "https://www.admiralslots.co.uk/venues/clapham/",
        "gambling": "slot_machines",
        "leisure": "adult_gaming_centre",
        "level": "0",
        "name": "Admiral"
      }
    },
    {
      "type": "way",
      "id": 231280960,
      "name": "Admiral",
      "brand": "Admiral",
      "website": null,
      "postcode": null,
      "street": null,
      "city": null,
      "lat": 51.5581652,
      "lon": -0.1191712,
      "raw_tags": {
        "brand": "Admiral",
        "brand:wikidata": "Q25205850",
        "building": "yes",
        "gambling": "slot_machines",
        "leisure": "adult_gaming_centre",
        "name": "Admiral",
        "old_name": "Quicksilver"
      }
    },
    {
      "type": "way",
      "id": 243352358,
      "name": "MERKUR Slots",
      "brand": "MERKUR Slots",
      "website": null,
      "postcode": null,
      "street": null,
      "city": null,
      "lat": 51.5940871,
      "lon": -0.3354313,
      "raw_tags": {
        "brand": "MERKUR Slots",
        "brand:wikidata": "Q22000565",
        "building": "apartments",
        "building:levels": "3",
        "gambling": "slot_machines",
        "leisure": "adult_gaming_centre",
        "name": "MERKUR Slots",
        "roof:shape": "gabled",
        "source": "Bing;photograph"
      }
    },
    {
      "type": "way",
      "id": 247904214,
      "name": "MERKUR Slots",
      "brand": "MERKUR Slots",
      "website": null,
      "postcode": "HA9 7BH",
      "street": "High Road",
      "city": "Wembley",
      "lat": 51.5535129,
      "lon": -0.2947734,
      "raw_tags": {
        "addr:city": "Wembley",
        "addr:housenumber": "478",
        "addr:postcode": "HA9 7BH",
        "addr:street": "High Road",
        "brand": "MERKUR Slots",
        "brand:wikidata": "Q22000565",
        "building": "yes",
        "building:colour": "white",
        "building:levels": "2",
        "fhrs:id": "1152734",
        "gambling": "slot_machines",
        "leisure": "adult_gaming_centre",
        "name": "MERKUR Slots",
        "old_name": "Cashino",
        "source": "Bing;photograph",
        "source:addr": "FHRS Open Data",
        "source:name": "FHRS Open Data"
      }
    },
    {
      "type": "way",
      "id": 251407302,
      "name": "SilverTime Casino",
      "brand": null,
      "website": null,
      "postcode": null,
      "street": null,
      "city": null,
      "lat": 51.5518831,
      "lon": -0.2985321,
      "raw_tags": {
        "building": "yes",
        "building:levels": "2",
        "building:material": "brick",
        "leisure": "adult_gaming_centre",
        "name": "SilverTime Casino",
        "source": "Bing;photograph"
      }
    },
    {
      "type": "way",
      "id": 264131974,
      "name": "MERKUR Slots",
      "brand": "MERKUR Slots",
      "website": "https://merkurslotsvenues.com/venue/merkur-slots-aldgate/",
      "postcode": null,
      "street": null,
      "city": null,
      "lat": 51.5159017,
      "lon": -0.0706379,
      "raw_tags": {
        "brand": "MERKUR Slots",
        "brand:wikidata": "Q22000565",
        "building:levels": "1",
        "building:min_level": "1",
        "building:part": "retail",
        "gambling": "slot_machines",
        "leisure": "adult_gaming_centre",
        "name": "MERKUR Slots",
        "website": "https://merkurslotsvenues.com/venue/merkur-slots-aldgate/"
      }
    },
    {
      "type": "way",
      "id": 267559617,
      "name": "Royal Casino Slots",
      "brand": null,
      "website": null,
      "postcode": null,
      "street": "Brick Lane",
      "city": "London",
      "lat": 51.5175657,
      "lon": -0.0705845,
      "raw_tags": {
        "addr:city": "London",
        "addr:housenumber": "10",
        "addr:street": "Brick Lane",
        "building": "retail",
        "leisure": "adult_gaming_centre",
        "name": "Royal Casino Slots"
      }
    },
    {
      "type": "way",
      "id": 313501576,
      "name": "MERKUR Slots",
      "brand": "MERKUR Slots",
      "website": null,
      "postcode": "IG11 8EQ",
      "street": "East Street",
      "city": "Barking",
      "lat": 51.5376447,
      "lon": 0.0794099,
      "raw_tags": {
        "addr:city": "Barking",
        "addr:postcode": "IG11 8EQ",
        "addr:street": "East Street",
        "brand": "MERKUR Slots",
        "brand:wikidata": "Q22000565",
        "building": "retail",
        "building:levels": "3",
        "building:material": "brick",
        "fhrs:id": "1401150",
        "gambling": "slot_machines",
        "leisure": "adult_gaming_centre",
        "name": "MERKUR Slots",
        "old_name": "Cashino",
        "roof:levels": "1",
        "source": "Bing;photograph",
        "source:addr": "FHRS Open Data",
        "source:name": "FHRS Open Data"
      }
    },
    {
      "type": "way",
      "id": 314768735,
      "name": "Grove Leisure",
      "brand": null,
      "website": null,
      "postcode": "IG11 8ED",
      "street": "Station Parade",
      "city": "Barking",
      "lat": 51.5383966,
      "lon": 0.0797916,
      "raw_tags": {
        "addr:city": "Barking",
        "addr:housenumber": "9",
        "addr:postcode": "IG11 8ED",
        "addr:street": "Station Parade",
        "building:part": "retail",
        "leisure": "adult_gaming_centre",
        "level": "0",
        "name": "Grove Leisure",
        "source:addr:postcode": "code-point_open"
      }
    },
    {
      "type": "way",
      "id": 372808117,
      "name": "Royal Casino Slots",
      "brand": null,
      "website": null,
      "postcode": null,
      "street": "Mare Street",
      "city": "London",
      "lat": 51.5493144,
      "lon": -0.0547912,
      "raw_tags": {
        "addr:city": "London",
        "addr:country": "GB",
        "addr:housenumber": "408",
        "addr:street": "Mare Street",
        "addr:suburb": "Hackney",
        "building": "yes",
        "building:colour": "brown",
        "building:levels": "3",
        "building:material": "brick",
        "check_date": "2025-07-21",
        "leisure": "adult_gaming_centre",
        "name": "Royal Casino Slots",
        "roof:colour": "darkgrey",
        "roof:levels": "1"
      }
    },
    {
      "type": "way",
      "id": 424811788,
      "name": "Admiral",
      "brand": "Admiral",
      "website": null,
      "postcode": null,
      "street": "High Street",
      "city": "London",
      "lat": 51.584127,
      "lon": -0.0226573,
      "raw_tags": {
        "addr:city": "London",
        "addr:country": "GB",
        "addr:housenumber": "196",
        "addr:street": "High Street",
        "addr:suburb": "Walthamstow",
        "brand": "Admiral",
        "brand:wikidata": "Q25205850",
        "building": "retail",
        "check_date": "2024-08-19",
        "contact:website": "https://www.admiralslots.co.uk/venues/walthamstow/",
        "gambling": "slot_machines",
        "leisure": "adult_gaming_centre",
        "name": "Admiral"
      }
    },
    {
      "type": "way",
      "id": 435056788,
      "name": "Voyager",
      "brand": null,
      "website": null,
      "postcode": null,
      "street": null,
      "city": null,
      "lat": 51.4713153,
      "lon": -0.4583335,
      "raw_tags": {
        "leisure": "adult_gaming_centre",
        "level": "0",
        "name": "Voyager"
      }
    },
    {
      "type": "way",
      "id": 437767464,
      "name": "Red 9 Gaming",
      "brand": null,
      "website": null,
      "postcode": "E1 1DB",
      "street": "Whitechapel Road",
      "city": "London",
      "lat": 51.5189892,
      "lon": -0.061518,
      "raw_tags": {
        "addr:city": "London",
        "addr:housenumber": "227-229",
        "addr:postcode": "E1 1DB",
        "addr:street": "Whitechapel Road",
        "building": "yes",
        "building:levels": "3",
        "leisure": "adult_gaming_centre",
        "name": "Red 9 Gaming"
      }
    },
    {
      "type": "way",
      "id": 452786930,
      "name": "Game Nation",
      "brand": null,
      "website": null,
      "postcode": null,
      "street": null,
      "city": null,
      "lat": 51.5375522,
      "lon": -0.1410683,
      "raw_tags": {
        "leisure": "adult_gaming_centre",
        "level": "0",
        "name": "Game Nation"
      }
    },
    {
      "type": "way",
      "id": 452993161,
      "name": "Jesters",
      "brand": null,
      "website": null,
      "postcode": null,
      "street": "Lea Bridge Road",
      "city": "London",
      "lat": 51.5756199,
      "lon": -0.0122807,
      "raw_tags": {
        "addr:city": "London",
        "addr:country": "GB",
        "addr:housenumber": "630",
        "addr:street": "Lea Bridge Road",
        "addr:suburb": "Leyton",
        "building": "yes",
        "building:levels": "2",
        "leisure": "adult_gaming_centre",
        "name": "Jesters",
        "shop": "convenience",
        "source": "survey"
      }
    },
    {
      "type": "way",
      "id": 457644924,
      "name": "MERKUR Slots",
      "brand": "MERKUR Slots",
      "website": "https://merkurslotsvenues.com/venue/merkur-slots-camden-town/",
      "postcode": "NW1 7JN",
      "street": "Camden High Street",
      "city": "London",
      "lat": 51.536889,
      "lon": -0.1412675,
      "raw_tags": {
        "addr:city": "London",
        "addr:housenumber": "107",
        "addr:postcode": "NW1 7JN",
        "addr:street": "Camden High Street",
        "brand": "MERKUR Slots",
        "brand:wikidata": "Q22000565",
        "building": "retail",
        "building:colour": "brown",
        "building:levels": "3",
        "building:material": "brick",
        "fhrs:id": "1593930",
        "gambling": "slot_machines",
        "leisure": "adult_gaming_centre",
        "name": "MERKUR Slots",
        "old_name": "Cashino",
        "roof:levels": "1",
        "source:addr": "FHRS Open Data",
        "source:name": "FHRS Open Data",
        "website": "https://merkurslotsvenues.com/venue/merkur-slots-camden-town/"
      }
    },
    {
      "type": "way",
      "id": 592200034,
      "name": "Admiral",
      "brand": "Admiral",
      "website": null,
      "postcode": null,
      "street": null,
      "city": null,
      "lat": 51.548478,
      "lon": -0.0553056,
      "raw_tags": {
        "brand": "Admiral",
        "brand:wikidata": "Q25205850",
        "brand:wikipedia": "en:Admiral (gambling)",
        "building": "retail",
        "building:colour": "brown",
        "building:levels": "3",
        "building:material": "brick",
        "check_date": "2024-08-19",
        "contact:website": "https://www.admiralslots.co.uk/venues/hackney/",
        "gambling": "slot_machines",
        "leisure": "adult_gaming_centre",
        "name": "Admiral",
        "roof:colour": "darkgrey"
      }
    },
    {
      "type": "way",
      "id": 753674031,
      "name": "MERKUR Slots",
      "brand": "MERKUR Slots",
      "website": null,
      "postcode": null,
      "street": "High Street",
      "city": "Feltham",
      "lat": 51.4464856,
      "lon": -0.4103539,
      "raw_tags": {
        "addr:city": "Feltham",
        "addr:housename": "The Centre",
        "addr:street": "High Street",
        "brand": "MERKUR Slots",
        "brand:wikidata": "Q22000565",
        "gambling": "slot_machines",
        "leisure": "adult_gaming_centre",
        "level": "0",
        "name": "MERKUR Slots",
        "old_name": "Santander"
      }
    },
    {
      "type": "way",
      "id": 856981344,
      "name": "MERKUR Slots",
      "brand": "MERKUR Slots",
      "website": null,
      "postcode": null,
      "street": null,
      "city": null,
      "lat": 51.428118,
      "lon": -0.1675643,
      "raw_tags": {
        "brand": "MERKUR Slots",
        "brand:wikidata": "Q22000565",
        "building": "retail",
        "building:colour": "brown",
        "building:levels": "3",
        "building:material": "brick",
        "gambling": "slot_machines",
        "leisure": "adult_gaming_centre",
        "name": "MERKUR Slots",
        "roof:colour": "grey"
      }
    },
    {
      "type": "way",
      "id": 934892421,
      "name": "Merkur Slots",
      "brand": "MERKUR Slots",
      "website": "https://merkurslotsvenues.com/venue/merkur-slots-shepherds-bush/",
      "postcode": null,
      "street": "Uxbridge Road",
      "city": null,
      "lat": 51.5047037,
      "lon": -0.2209897,
      "raw_tags": {
        "addr:housenumber": "96-98",
        "addr:street": "Uxbridge Road",
        "brand": "MERKUR Slots",
        "brand:wikidata": "Q22000565",
        "gambling": "slot_machines",
        "leisure": "adult_gaming_centre",
        "name": "Merkur Slots",
        "old_name": "Cashino",
        "phone": "+44 20 8735 0745",
        "website": "https://merkurslotsvenues.com/venue/merkur-slots-shepherds-bush/"
      }
    },
    {
      "type": "way",
      "id": 966050366,
      "name": "Admiral",
      "brand": "Admiral",
      "website": null,
      "postcode": null,
      "street": null,
      "city": null,
      "lat": 51.4567065,
      "lon": 0.1425539,
      "raw_tags": {
        "brand": "Admiral",
        "brand:wikidata": "Q25205850",
        "brand:wikipedia": "en:Admiral (gambling)",
        "building": "retail",
        "building:colour": "brown",
        "building:levels": "3",
        "building:material": "brick",
        "check_date": "2024-08-19",
        "check_date:opening_hours": "2024-08-19",
        "contact:website": "https://www.admiralslots.co.uk/venues/bexleyheath/",
        "gambling": "slot_machines",
        "image": "https://archive.org/details/bexleyheath-2019-03-28/Bexleyheath-2019-03-28/DSCN9239.JPG",
        "leisure": "adult_gaming_centre",
        "min_age": "18",
        "name": "Admiral",
        "opening_hours": "Mo-Sa 09:00-24:00; Su 10:00-18:00",
        "roof:colour": "grey"
      }
    },
    {
      "type": "way",
      "id": 1011102838,
      "name": "MERKUR Slots",
      "brand": "MERKUR Slots",
      "website": "https://merkurslotsvenues.com/venue/merkur-slots-putney/",
      "postcode": null,
      "street": "Putney High Street",
      "city": "London",
      "lat": 51.4618385,
      "lon": -0.2169155,
      "raw_tags": {
        "addr:city": "London",
        "addr:housenumber": "152",
        "addr:street": "Putney High Street",
        "amenity": "gambling",
        "brand": "MERKUR Slots",
        "brand:wikidata": "Q22000565",
        "building": "retail",
        "gambling": "slot_machines",
        "leisure": "adult_gaming_centre",
        "name": "MERKUR Slots",
        "website": "https://merkurslotsvenues.com/venue/merkur-slots-putney/"
      }
    },
    {
      "type": "way",
      "id": 1066256229,
      "name": "Admiral",
      "brand": "Admiral",
      "website": null,
      "postcode": null,
      "street": null,
      "city": null,
      "lat": 51.4146122,
      "lon": -0.0526333,
      "raw_tags": {
        "brand": "Admiral",
        "brand:wikidata": "Q25205850",
        "building": "yes",
        "check_date": "2024-08-19",
        "check_date:opening_hours": "2024-08-19",
        "contact:website": "https://www.admiralslots.co.uk/venues/penge/",
        "gambling": "slot_machines",
        "leisure": "adult_gaming_centre",
        "name": "Admiral",
        "opening_hours": "Mo-We 09:00-23:00; Th 09:00-24:00; Fr-Sa 00:00-24:00; Su 00:00-23:00"
      }
    },
    {
      "type": "way",
      "id": 1104153612,
      "name": "Admiral",
      "brand": "Admiral",
      "website": null,
      "postcode": "BR6 0JN",
      "street": "High Street",
      "city": "Orpington",
      "lat": 51.3771273,
      "lon": 0.0998906,
      "raw_tags": {
        "addr:city": "Orpington",
        "addr:housenumber": "200",
        "addr:postcode": "BR6 0JN",
        "addr:street": "High Street",
        "brand": "Admiral",
        "brand:wikidata": "Q25205850",
        "building": "yes",
        "check_date": "2024-08-19",
        "contact:website": "https://www.admiralslots.co.uk/venues/orpington/",
        "fhrs:id": "1218049",
        "gambling": "slot_machines",
        "leisure": "adult_gaming_centre",
        "name": "Admiral"
      }
    }
  ]
}