{
  "category": "climbing",
  "area": "Greater London",
  "count": 50,
  "elements": [
    {
      "type": "node",
      "id": 320344531,
      "name": "Boulder (Mabley Green)",
      "brand": null,
      "website": "https://www.peeruk.org/chrisdorleybrownjohnfrankland",
      "postcode": null,
      "street": null,
      "city": null,
      "lat": 51.5489644,
      "lon": -0.032624,
      "raw_tags": {
        "artist_name": "John Frankland",
        "artwork_type": "sculpture",
        "material": "granite",
        "name": "Boulder (Mabley Green)",
        "sport": "climbing",
        "start_date": "14 August 2008",
        "tourism": "artwork",
        "website": "https://www.peeruk.org/chrisdorleybrownjohnfrankland"
      }
    },
    {
      "type": "node",
      "id": 2417949821,
      "name": "Outdoor climbing wall",
      "brand": null,
      "website": null,
      "postcode": null,
      "street": null,
      "city": null,
      "lat": 51.4404062,
      "lon": -0.0631736,
      "raw_tags": {
        "leisure": "playground",
        "name": "Outdoor climbing wall",
        "sport": "climbing"
      }
    },
    {
      "type": "node",
      "id": 4103115961,
      "name": null,
      "brand": null,
      "website": null,
      "postcode": null,
      "street": null,
      "city": null,
      "lat": 51.5383726,
      "lon": -0.2150862,
      "raw_tags": {
        "leisure": "wall",
        "sport": "climbing"
      }
    },
    {
      "type": "node",
      "id": 4313286505,
      "name": null,
      "brand": null,
      "website": null,
      "postcode": null,
      "street": null,
      "city": null,
      "lat": 51.4308063,
      "lon": -0.0657487,
      "raw_tags": {
        "leisure": "sports_centre",
        "sport": "climbing"
      }
    },
    {
      "type": "node",
      "id": 5392665527,
      "name": "BethWall Climbing Centre",
      "brand": null,
      "website": "https://londonclimbingcentres.co.uk/centre/bethwall/",
      "postcode": "E2 9QX",
      "street": "Hollybush Place",
      "city": "London",
      "lat": 51.5277422,
      "lon": -0.056381,
      "raw_tags": {
        "addr:city": "London",
        "addr:housename": "Arch 243-247",
        "addr:postcode": "E2 9QX",
        "addr:street": "Hollybush Place",
        "climbing:boulder": "yes",
        "climbing:sport": "no",
        "climbing:toprope": "no",
        "fee": "yes",
        "leisure": "sports_centre",
        "name": "BethWall Climbing Centre",
        "note": "Free bicycle parking inside for customers, approx 10 wheelbender spaces, 8 high saddle hook spaces.",
        "opening_hours": "Mo-Fr 06:00-23:00; Sa-Su,PH 08:00-21:00",
        "operator": "London Climbing Centres",
        "operator:type": "private_for_profit",
        "payment:cash": "no",
        "payment:contactless": "yes",
        "payment:credit_cards": "yes",
        "payment:debit_cards": "yes",
        "payment:others": "no",
        "sport": "climbing",
        "website": "https://londonclimbingcentres.co.uk/centre/bethwall/"
      }
    },
    {
      "type": "node",
      "id": 6474751775,
      "name": "Boulder (Shoreditch Park)",
      "brand": null,
      "website": "https://www.peeruk.org/chrisdorleybrownjohnfrankland",
      "postcode": null,
      "street": null,
      "city": null,
      "lat": 51.5344721,
      "lon": -0.0867204,
      "raw_tags": {
        "artist_name": "John Frankland",
        "artwork_type": "sculpture",
        "material": "granite",
        "name": "Boulder (Shoreditch Park)",
        "sport": "climbing",
        "start_date": "14 August 2008",
        "tourism": "artwork",
        "website": "https://www.peeruk.org/chrisdorleybrownjohnfrankland"
      }
    },
    {
      "type": "node",
      "id": 6695727486,
      "name": "Harrowall",
      "brand": null,
      "website": "https://londonclimbingcentres.co.uk/centre/harrowall/",
      "postcode": "HA1 4HX",
      "street": "Neptune Road",
      "city": null,
      "lat": 51.5806563,
      "lon": -0.3443853,
      "raw_tags": {
        "addr:postcode": "HA1 4HX",
        "addr:street": "Neptune Road",
        "addr:unit": "2A",
        "contact:email": "harrowall@londonclimbingcentres.co.uk",
        "contact:instagram": "harrowall",
        "contact:phone": "+44 20 3026 4960",
        "fhrs:id": "1273865",
        "leisure": "fitness_centre",
        "name": "Harrowall",
        "opening_hours": "Mo-Fr 10:00-23:00; Tu,Th 06:00-23:00; Sa,Su 08:00-22:00",
        "sport": "climbing",
        "website": "https://londonclimbingcentres.co.uk/centre/harrowall/"
      }
    },
    {
      "type": "node",
      "id": 7706615277,
      "name": "Croywall",
      "brand": null,
      "website": "https://londonclimbingcentres.co.uk/centre/croywall/",
      "postcode": "CR0 4WN",
      "street": "Whitestone way",
      "city": "Croydon",
      "lat": 51.3741559,
      "lon": -0.1155061,
      "raw_tags": {
        "access": "customers",
        "addr:city": "Croydon",
        "addr:country": "GB",
        "addr:housenumber": "Unit 7, New South Quarter",
        "addr:postcode": "CR0 4WN",
        "addr:street": "Whitestone way",
        "fee": "yes",
        "leisure": "sports_centre",
        "name": "Croywall",
        "operator": "London Climbing Centres",
        "sport": "climbing",
        "website": "https://londonclimbingcentres.co.uk/centre/croywall/"
      }
    },
    {
      "type": "node",
      "id": 8844791018,
      "name": "Yonder Climbing",
      "brand": null,
      "website": "https://www.thisisyonder.com/yonder-climbing-new",
      "postcode": "E17 6DP",
      "street": "Hookers Road",
      "city": "London",
      "lat": 51.5896021,
      "lon": -0.0409418,
      "raw_tags": {
        "addr:city": "London",
        "addr:country": "GB",
        "addr:housenumber": "4-6",
        "addr:postcode": "E17 6DP",
        "addr:street": "Hookers Road",
        "leisure": "sports_centre",
        "name": "Yonder Climbing",
        "opening_hours": "Mo-Fr 07:00-22:00; Sa-Su 08:45-18:00",
        "phone": "+44 20 3746 3869",
        "sport": "climbing",
        "website": "https://www.thisisyonder.com/yonder-climbing-new"
      }
    },
    {
      "type": "node",
      "id": 9031636962,
      "name": "Stronghold London Fields",
      "brand": null,
      "website": "https://www.thestrongholduk.com/locations/london-fields/",
      "postcode": "E8 4FX",
      "street": "Andrews Road",
      "city": "London",
      "lat": 51.5346509,
      "lon": -0.0603288,
      "raw_tags": {
        "addr:city": "London",
        "addr:housename": "Unit 30, Canal Place",
        "addr:postcode": "E8 4FX",
        "addr:street": "Andrews Road",
        "climbing:boulder": "yes",
        "climbing:sport": "no",
        "climbing:toprope": "no",
        "cuisine": "coffee_shop",
        "email": "londonfields@thestrongholduk.com",
        "fee": "yes",
        "food": "yes",
        "leisure": "sports_centre",
        "name": "Stronghold London Fields",
        "note": "Free bike storage for customers. Downstairs, approx 70 bike capacity. Ask at front desk.",
        "opening_hours": "Mo-Fr 07:00-22:30; Sa-Su 09:00-21:00",
        "operator": "Stronghold Climbing Centres",
        "operator:type": "private_for_profit",
        "payment:cash": "no",
        "payment:contactless": "yes",
        "payment:credit_cards": "yes",
        "payment:debit_cards": "yes",
        "payment:others": "no",
        "phone": "+44 20 8350 2453",
        "sport": "climbing",
        "website": "https://www.thestrongholduk.com/locations/london-fields/",
        "wheelchair": "limited"
      }
    },
    {
      "type": "node",
      "id": 9425765774,
      "name": "City Bouldering",
      "brand": null,
      "website": "https://www.citybouldering.co.uk/",
      "postcode": "EC3N 1AH",
      "street": "Aldgate High Street",
      "city": "London",
      "lat": 51.5143877,
      "lon": -0.074975,
      "raw_tags": {
        "addr:city": "London",
        "addr:housename": "Aldgate House",
        "addr:housenumber": "33",
        "addr:postcode": "EC3N 1AH",
        "addr:street": "Aldgate High Street",
        "climbing:boulder": "yes",
        "climbing:sport": "no",
        "climbing:toprope": "no",
        "email": "info@citybouldering.co.uk",
        "fee": "yes",
        "leisure": "sports_centre",
        "name": "City Bouldering",
        "opening_hours": "Mo-Fr 06:30-23:00; Sa-Su 08:00-22:00",
        "phone": "+44 20 7247 3121",
        "service:climbing_harness:rental": "no",
        "service:climbing_shoes:rental": "yes",
        "service:climbing_shoes:rental:fee": "yes",
        "sport": "climbing",
        "website": "https://www.citybouldering.co.uk/"
      }
    },
    {
      "type": "node",
      "id": 9426680620,
      "name": null,
      "brand": null,
      "website": null,
      "postcode": null,
      "street": null,
      "city": null,
      "lat": 51.4414572,
      "lon": 0.0131597,
      "raw_tags": {
        "leisure": "sports_centre",
        "sport": "climbing"
      }
    },
    {
      "type": "node",
      "id": 9426680621,
      "name": null,
      "brand": null,
      "website": null,
      "postcode": null,
      "street": null,
      "city": null,
      "lat": 51.4414458,
      "lon": 0.0133422,
      "raw_tags": {
        "leisure": "sports_centre",
        "sport": "climbing"
      }
    },
    {
      "type": "node",
      "id": 9515319794,
      "name": "Canary Wall",
      "brand": null,
      "website": "https://londonclimbingcentres.co.uk/centre/canarywall/",
      "postcode": "E14 8AA",
      "street": "Trinidad Street",
      "city": "London",
      "lat": 51.5096695,
      "lon": -0.0273713,
      "raw_tags": {
        "addr:city": "London",
        "addr:housename": "Arch 313",
        "addr:housenumber": "21-23",
        "addr:postcode": "E14 8AA",
        "addr:street": "Trinidad Street",
        "alt_name": "Canary Wall",
        "climbing:boulder": "yes",
        "climbing:sport": "no",
        "climbing:toprope": "no",
        "contact:instagram": "canarywall",
        "contact:phone": "+44 20 3026 4964",
        "fee": "yes",
        "fixme": "Address needs triple checking. Seems inconsistent with neighbouring arches. Where does 21-23 Trinidad Street come from? It should be an arch number like the others.",
        "leisure": "sports_centre",
        "name": "Canary Wall",
        "note": "Free bicycle parking inside for customers, ask for gate code at front desk. Approx 10 capacity, sheffield stands.",
        "opening_hours": "Mo-Fr 11:00-23:00; Tu,Th 06:00-23:00; Sa,Su,PH 09:00-21:00",
        "operator": "London Climbing Centres",
        "operator:type": "private_for_profit",
        "payment:cash": "no",
        "payment:contactless": "yes",
        "payment:credit_cards": "yes",
        "payment:debit_cards": "yes",
        "payment:others": "no",
        "ref": "LIMV3130",
        "sport": "climbing",
        "website": "https://londonclimbingcentres.co.uk/centre/canarywall/"
      }
    },
    {
      "type": "node",
      "id": 9967520716,
      "name": "Stronghold Tottenham Hale",
      "brand": null,
      "website": "https://thestrongholduk.com/locations/tottenham-hale/",
      "postcode": "N15 4BE",
      "street": "Fountayne Road",
      "city": "London",
      "lat": 51.5854474,
      "lon": -0.0607538,
      "raw_tags": {
        "addr:city": "London",
        "addr:housename": "First Floor, Unit 10, The Archives, High Corss Centre",
        "addr:postcode": "N15 4BE",
        "addr:street": "Fountayne Road",
        "check_date": "2022-08-21",
        "cuisine": "coffee_shop",
        "fee": "yes",
        "fhrs:id": "1359537",
        "food": "yes",
        "leisure": "sports_centre",
        "level": "1",
        "name": "Stronghold Tottenham Hale",
        "note": "Public free bike parking, capacity approx 20 on sheffield stands in car park outside.",
        "opening_hours": "Mo,Tu,Fr 07:00-22:30; We,Th 08:00-22:30; Sa 09:00-19:00; Su 09:00-21:00",
        "operator": "Stronghold Climbing Centres",
        "operator:type": "private_for_profit",
        "payment:contactless": "yes",
        "payment:credit_cards": "yes",
        "payment:debit_cards": "yes",
        "payment:others": "no",
        "sport": "climbing",
        "website": "https://thestrongholduk.com/locations/tottenham-hale/"
      }
    },
    {
      "type": "node",
      "id": 10106134387,
      "name": "Rise Climbing",
      "brand": null,
      "website": "https://www.rise-climbing.com/",
      "postcode": "E16 1ZA",
      "street": "Hoy Street",
      "city": "London",
      "lat": 51.511188,
      "lon": 0.0127298,
      "raw_tags": {
        "addr:city": "London",
        "addr:place": "Caxton Street Works",
        "addr:postcode": "E16 1ZA",
        "addr:street": "Hoy Street",
        "addr:unit": "6",
        "contact:instagram": "theriseclimbingproject",
        "fee": "yes",
        "fhrs:id": "1513730",
        "leisure": "sports_centre",
        "name": "Rise Climbing",
        "opening_hours": "Mo, We, Fr 10:00-22:00;Tu, Th 06:00-22:00; Sa-Su 09:00-18:00; PH 09:00-21:00",
        "sport": "climbing",
        "website": "https://www.rise-climbing.com/"
      }
    },
    {
      "type": "node",
      "id": 10199103147,
      "name": "Hang",
      "brand": null,
      "website": null,
      "postcode": "TW3 1EH",
      "street": "Smithy Lane",
      "city": "Hounslow",
      "lat": 51.4705329,
      "lon": -0.361877,
      "raw_tags": {
        "addr:city": "Hounslow",
        "addr:housenumber": "9",
        "addr:postcode": "TW3 1EH",
        "addr:street": "Smithy Lane",
        "leisure": "sports_centre",
        "name": "Hang",
        "sport": "climbing"
      }
    },
    {
      "type": "node",
      "id": 10552592178,
      "name": "EustonWall Climbing Centre",
      "brand": null,
      "website": "https://londonclimbingcentres.co.uk/centre/eustonwall/",
      "postcode": "NW1 3AX",
      "street": "Euston Road",
      "city": "London",
      "lat": 51.5246047,
      "lon": -0.1418928,
      "raw_tags": {
        "addr:city": "London",
        "addr:housenumber": "350",
        "addr:postcode": "NW1 3AX",
        "addr:street": "Euston Road",
        "alt_name": "Euston Wall",
        "climbing:boulder": "yes",
        "climbing:sport": "no",
        "climbing:toprope": "no",
        "fee": "yes",
        "leisure": "sports_centre",
        "name": "EustonWall Climbing Centre",
        "opening_hours": "Mo-Fr 06:00-23:00; Sa-Su,PH 09:00-21:00",
        "operator": "London Climbing Centres",
        "operator:type": "private_for_profit",
        "payment:cash": "no",
        "payment:contactless": "yes",
        "payment:credit_cards": "yes",
        "payment:debit_cards": "yes",
        "payment:others": "no",
        "sport": "climbing",
        "website": "https://londonclimbingcentres.co.uk/centre/eustonwall/"
      }
    },
    {
      "type": "node",
      "id": 11042163878,
      "name": "The Arch Climbing Wall Surrey Quays",
      "brand": null,
      "website": "https://www.archclimbingwall.com/surrey-quays-centre",
      "postcode": "SE16 7LL",
      "street": null,
      "city": "London",
      "lat": 51.4955073,
      "lon": -0.0472809,
      "raw_tags": {
        "addr:city": "London",
        "addr:housename": "Surrey Quays Shopping Centre",
        "addr:postcode": "SE16 7LL",
        "climbing:boulder": "yes",
        "climbing:sport": "no",
        "climbing:toprope": "no",
        "fee": "yes",
        "leisure": "sports_centre",
        "name": "The Arch Climbing Wall Surrey Quays",
        "opening_hours": "Mo-Fr 06:30-22:00; Sa-Su 09:00-21:00",
        "operator": "Inner Ape Ltd",
        "operator:type": "private_for_profit",
        "payment:cash": "no",
        "payment:contactless": "yes",
        "payment:credit_cards": "yes",
        "payment:debit_cards": "yes",
        "payment:others": "no",
        "sport": "climbing",
        "website": "https://www.archclimbingwall.com/surrey-quays-centre"
      }
    },
    {
      "type": "node",
      "id": 11042290163,
      "name": "The Font Borough",
      "brand": null,
      "website": "https://www.the-font.co.uk/borough",
      "postcode": "SE1 9BL",
      "street": "Park Street",
      "city": "London",
      "lat": 51.5071808,
      "lon": -0.0971764,
      "raw_tags": {
        "addr:city": "London",
        "addr:housename": "Unit 1b, Triptych Place",
        "addr:housenumber": "185",
        "addr:postcode": "SE1 9BL",
        "addr:street": "Park Street",
        "climbing:boulder": "yes",
        "climbing:sport": "no",
        "climbing:toprope": "no",
        "fee": "yes",
        "leisure": "sports_centre",
        "name": "The Font Borough",
        "note": "Free bicycle parking for customers inside.",
        "opening_hours": "Mo-Fr 06:30-22:30; Sa-Su 10:00-18:00",
        "operator": "The Font Climbing Ltd",
        "operator:type": "private_for_profit",
        "sport": "climbing",
        "website": "https://www.the-font.co.uk/borough"
      }
    },
    {
      "type": "node",
      "id": 11343785902,
      "name": "City Bouldering",
      "brand": null,
      "website": null,
      "postcode": null,
      "street": null,
      "city": null,
      "lat": 51.5094954,
      "lon": -0.2229755,
      "raw_tags": {
        "leisure": "sports_centre",
        "name": "City Bouldering",
        "sport": "climbing"
      }
    },
    {
      "type": "node",
      "id": 11747234586,
      "name": "Blocfit",
      "brand": null,
      "website": null,
      "postcode": "SW9 8RR",
      "street": "Coldharbour Lane",
      "city": "London",
      "lat": 51.4650031,
      "lon": -0.1028668,
      "raw_tags": {
        "addr:city": "London",
        "addr:housename": "Arch 266",
        "addr:housenumber": "241",
        "addr:postcode": "SW9 8RR",
        "addr:street": "Coldharbour Lane",
        "addr:unit": "266",
        "check_date": "2024-10-31",
        "leisure": "sports_centre",
        "name": "Blocfit",
        "phone": "+44 207 738 4585",
        "sport": "climbing"
      }
    },
    {
      "type": "node",
      "id": 11780635082,
      "name": "Canary Wall",
      "brand": null,
      "website": null,
      "postcode": "E14 8AB",
      "street": "Trinidad Street",
      "city": "London",
      "lat": 51.509725,
      "lon": -0.0274909,
      "raw_tags": {
        "addr:city": "London",
        "addr:housename": "Arch 312",
        "addr:housenumber": "312",
        "addr:postcode": "E14 8AB",
        "addr:street": "Trinidad Street",
        "leisure": "sports_centre",
        "name": "Canary Wall",
        "note": "In arch under bridge",
        "opening_hours:signed": "no",
        "ref": "LIMV3120",
        "sport": "climbing"
      }
    },
    {
      "type": "node",
      "id": 11780635084,
      "name": "Canary Wall",
      "brand": null,
      "website": null,
      "postcode": "E14 8AB",
      "street": "Trinidad Street",
      "city": "London",
      "lat": 51.5095715,
      "lon": -0.0271245,
      "raw_tags": {
        "addr:city": "London",
        "addr:housename": "Arch 315",
        "addr:postcode": "E14 8AB",
        "addr:street": "Trinidad Street",
        "leisure": "sports_centre",
        "name": "Canary Wall",
        "ref": "LIMV3150",
        "sport": "climbing"
      }
    },
    {
      "type": "node",
      "id": 12669088657,
      "name": "Romford Rock and Boulder",
      "brand": null,
      "website": "https://www.romfordrockandboulder.co.uk/",
      "postcode": null,
      "street": null,
      "city": null,
      "lat": 51.5829803,
      "lon": 0.1745672,
      "raw_tags": {
        "contact:instagram": "romfordrockandboulder",
        "leisure": "sports_centre",
        "name": "Romford Rock and Boulder",
        "opening_hours": "Mo-Fr 12:00-22:00; Sa 10:00-18:00; Su 10:00-16:00",
        "sport": "climbing",
        "website": "https://www.romfordrockandboulder.co.uk/"
      }
    },
    {
      "type": "way",
      "id": 30060848,
      "name": null,
      "brand": null,
      "website": null,
      "postcode": null,
      "street": null,
      "city": null,
      "lat": 51.5626961,
      "lon": -0.1219337,
      "raw_tags": {
        "sport": "climbing"
      }
    },
    {
      "type": "way",
      "id": 30955182,
      "name": "Mile End Climbing Wall",
      "brand": null,
      "website": "https://www.mileendwall.org.uk/",
      "postcode": "E3 5BE",
      "street": "Haverfield Road",
      "city": "London",
      "lat": 51.527652,
      "lon": -0.0396704,
      "raw_tags": {
        "addr:city": "London",
        "addr:housename": "Mile End Climbing Wall",
        "addr:postcode": "E3 5BE",
        "addr:street": "Haverfield Road",
        "building": "yes",
        "check_date": "2025-01-21",
        "climbing:boulder": "yes",
        "climbing:toprope": "yes",
        "email": "enquiries@mileendwall.org.uk",
        "fee": "yes",
        "indoor": "yes",
        "internet_access": "wlan",
        "leisure": "sports_centre",
        "name": "Mile End Climbing Wall",
        "note": "Free bicycle parking for customers, sheffield stands in car park, approx 50 bikes capacity.",
        "opening_hours": "Mo-Fr,PH 07:00-22:00; Sa-Su 09:00-20:00",
        "operator": "Development Through Challenge",
        "operator:type": "private_non_profit",
        "payment:cash": "no",
        "payment:contactless": "yes",
        "payment:credit_cards": "yes",
        "payment:debit_cards": "yes",
        "payment:others": "no",
        "phone": "+44 20 8980 0289",
        "sport": "climbing",
        "toilets": "yes",
        "website": "https://www.mileendwall.org.uk/"
      }
    },
    {
      "type": "way",
      "id": 97209805,
      "name": "VauxWall East Climbing Centre",
      "brand": null,
      "website": "https://londonclimbingcentres.co.uk/centre/vauxeast/",
      "postcode": "SE11 6BD",
      "street": "Cabanel Place",
      "city": "London",
      "lat": 51.4923297,
      "lon": -0.1145915,
      "raw_tags": {
        "addr:city": "London",
        "addr:housenumber": "1",
        "addr:postcode": "SE11 6BD",
        "addr:street": "Cabanel Place",
        "alt_name": "VauxEast",
        "building": "commercial;detached",
        "climbing:boulder": "yes",
        "climbing:sport": "no",
        "climbing:toprope": "no",
        "fee": "yes",
        "leisure": "sports_centre",
        "name": "VauxWall East Climbing Centre",
        "opening_hours": "Mo-Fr 09:00-22:00; Sa-Su,PH 09:00-19:00",
        "operator": "London Climbing Centres",
        "operator:type": "private_for_profit",
        "payment:cash": "no",
        "payment:contactless": "yes",
        "payment:credit_cards": "yes",
        "payment:debit_cards": "yes",
        "payment:others": "no",
        "source": "Bing",
        "sport": "climbing",
        "website": "https://londonclimbingcentres.co.uk/centre/vauxeast/"
      }
    },
    {
      "type": "way",
      "id": 107024158,
      "name": "City Bouldering Stratford",
      "brand": null,
      "website": "https://www.citybouldering.co.uk/locations/stratford",
      "postcode": "E15 2JA",
      "street": "High Street",
      "city": "London",
      "lat": 51.5371878,
      "lon": -0.0039442,
      "raw_tags": {
        "addr:city": "London",
        "addr:housenumber": "234",
        "addr:postcode": "E15 2JA",
        "addr:street": "High Street",
        "building": "commercial",
        "contact:email": "stratford@citybouldering.co.uk",
        "contact:facebook": "https://www.facebook.com/cityboulderingstratford",
        "contact:instagram": "https://www.instagram.com/cityboulderingstratford/",
        "contact:phone": "+44 20 3488 1123",
        "leisure": "sports_centre",
        "name": "City Bouldering Stratford",
        "opening_hours": "Mo-Fr 07:00-22:30; Sa-Su 09:00-21:00",
        "operator": "City Bouldering",
        "operator:type": "private",
        "sport": "climbing",
        "was:building:levels": "2",
        "was:name": "Universal Automobile Engineers",
        "was:shop": "car_repair",
        "was:source": "Bing",
        "website": "https://www.citybouldering.co.uk/locations/stratford"
      }
    },
    {
      "type": "way",
      "id": 141140814,
      "name": "White Spider Indoor Climbing",
      "brand": null,
      "website": "https://spiderclimbing.com/white-spider/",
      "postcode": "KT6 7LD",
      "street": "Hook Rise South",
      "city": "Surbiton",
      "lat": 51.3725688,
      "lon": -0.291355,
      "raw_tags": {
        "addr:city": "Surbiton",
        "addr:housenumber": "225",
        "addr:postcode": "KT6 7LD",
        "addr:street": "Hook Rise South",
        "building": "commercial",
        "leisure": "sports_centre",
        "name": "White Spider Indoor Climbing",
        "sport": "climbing",
        "website": "https://spiderclimbing.com/white-spider/"
      }
    },
    {
      "type": "way",
      "id": 272408747,
      "name": null,
      "brand": null,
      "website": null,
      "postcode": null,
      "street": null,
      "city": null,
      "lat": 51.540728,
      "lon": -0.0150976,
      "raw_tags": {
        "barrier": "wall",
        "est_height": "2.5",
        "leisure": "pitch",
        "lit": "no",
        "note": "traversal wall",
        "sport": "climbing"
      }
    },
    {
      "type": "way",
      "id": 272544372,
      "name": null,
      "brand": null,
      "website": null,
      "postcode": null,
      "street": null,
      "city": null,
      "lat": 51.5407147,
      "lon": -0.0151234,
      "raw_tags": {
        "barrier": "wall",
        "est_height": "3",
        "leisure": "pitch",
        "lit": "no",
        "note": "bouldering wall",
        "sport": "climbing"
      }
    },
    {
      "type": "way",
      "id": 273447989,
      "name": null,
      "brand": null,
      "website": null,
      "postcode": null,
      "street": null,
      "city": null,
      "lat": 51.5407211,
      "lon": -0.0151101,
      "raw_tags": {
        "leisure": "pitch",
        "lit": "no",
        "sport": "climbing",
        "wheelchair": "no"
      }
    },
    {
      "type": "way",
      "id": 273787952,
      "name": null,
      "brand": null,
      "website": null,
      "postcode": null,
      "street": null,
      "city": null,
      "lat": 51.5413894,
      "lon": -0.0149156,
      "raw_tags": {
        "barrier": "wall",
        "sport": "climbing"
      }
    },
    {
      "type": "way",
      "id": 293326666,
      "name": "Go-Ape",
      "brand": null,
      "website": "https://goape.co.uk/locations/cockfosters",
      "postcode": null,
      "street": null,
      "city": null,
      "lat": 51.656167,
      "lon": -0.148967,
      "raw_tags": {
        "brand:wikidata": "Q5574692",
        "building": "retail",
        "leisure": "high_ropes_course",
        "name": "Go-Ape",
        "sport": "climbing",
        "website": "https://goape.co.uk/locations/cockfosters"
      }
    },
    {
      "type": "way",
      "id": 364176703,
      "name": "Victory Park Traversing Wall",
      "brand": null,
      "website": null,
      "postcode": null,
      "street": null,
      "city": null,
      "lat": 51.5462192,
      "lon": -0.0099394,
      "raw_tags": {
        "barrier": "wall",
        "name": "Victory Park Traversing Wall",
        "sport": "climbing"
      }
    },
    {
      "type": "way",
      "id": 532315474,
      "name": "Clip'n'Climb",
      "brand": null,
      "website": "https://www.clipnclimbchelsea.co.uk/",
      "postcode": null,
      "street": "Michael Road",
      "city": null,
      "lat": 51.4779606,
      "lon": -0.1885885,
      "raw_tags": {
        "addr:housenumber": "19",
        "addr:street": "Michael Road",
        "building": "yes",
        "fee": "yes",
        "leisure": "sports_centre",
        "name": "Clip'n'Climb",
        "sport": "climbing",
        "website": "https://www.clipnclimbchelsea.co.uk/"
      }
    },
    {
      "type": "way",
      "id": 543985620,
      "name": "The Arch Climbing Wall: Arch Acton",
      "brand": null,
      "website": null,
      "postcode": "W3 6LJ",
      "street": "High Street",
      "city": "London",
      "lat": 51.5068715,
      "lon": -0.2652484,
      "raw_tags": {
        "addr:city": "London",
        "addr:housename": "The Arch Climbing Wall",
        "addr:housenumber": "20-24",
        "addr:postcode": "W3 6LJ",
        "addr:street": "High Street",
        "building": "yes",
        "check_date": "2024-01-20",
        "leisure": "sports_centre",
        "name": "The Arch Climbing Wall: Arch Acton",
        "sport": "climbing"
      }
    },
    {
      "type": "way",
      "id": 587943103,
      "name": null,
      "brand": null,
      "website": null,
      "postcode": null,
      "street": null,
      "city": null,
      "lat": 51.5257338,
      "lon": 0.0091296,
      "raw_tags": {
        "barrier": "wall",
        "sport": "climbing"
      }
    },
    {
      "type": "way",
      "id": 699455949,
      "name": null,
      "brand": null,
      "website": null,
      "postcode": null,
      "street": null,
      "city": null,
      "lat": 51.4298524,
      "lon": -0.37202,
      "raw_tags": {
        "leisure": "sports_centre",
        "sport": "climbing"
      }
    },
    {
      "type": "way",
      "id": 736488881,
      "name": "The Arch Climbing Wall: Building One",
      "brand": null,
      "website": "https://www.archclimbingwall.com/building-one",
      "postcode": "SE16 4DG",
      "street": "Drummond Road",
      "city": "London",
      "lat": 51.4932919,
      "lon": -0.0610598,
      "raw_tags": {
        "addr:city": "London",
        "addr:housename": "Tower Bridge Business Centre",
        "addr:postcode": "SE16 4DG",
        "addr:street": "Drummond Road",
        "building:levels": "1",
        "climbing:boulder": "yes",
        "climbing:sport": "no",
        "climbing:toprope": "no",
        "fee": "yes",
        "leisure": "sports_centre",
        "name": "The Arch Climbing Wall: Building One",
        "note": "Free bicycle parking for customers inside, high saddle holders only. Capacity around 25 bikes, this fills up at peak times.",
        "opening_hours": "Mo-Fr 06:30-22:30; Sa-Su 09:00-21:00",
        "operator": "Inner Ape Ltd",
        "operator:type": "private_for_profit",
        "payment:cash": "no",
        "payment:contactless": "yes",
        "payment:credit_cards": "yes",
        "payment:debit_cards": "yes",
        "payment:others": "no",
        "sport": "climbing",
        "website": "https://www.archclimbingwall.com/building-one"
      }
    },
    {
      "type": "way",
      "id": 757708322,
      "name": "The Font Wandsworth",
      "brand": null,
      "website": "https://www.the-font.co.uk/wandsworth",
      "postcode": "SW18 4LR",
      "street": "Lydden Road",
      "city": "London",
      "lat": 51.4472776,
      "lon": -0.1912095,
      "raw_tags": {
        "addr:city": "London",
        "addr:housenumber": "30",
        "addr:postcode": "SW18 4LR",
        "addr:street": "Lydden Road",
        "building": "yes",
        "climbing:boulder": "yes",
        "climbing:sport": "no",
        "climbing:toprope": "no",
        "fee": "yes",
        "leisure": "sports_centre",
        "name": "The Font Wandsworth",
        "note": "Free bicycle parking for customers. Approx 30 spaces in dutch-style lift-and-slide double decker cycle racks.",
        "opening_hours": "Mo-Fr 06:00-22:00; Sa-Su 08:00-20:00",
        "operator": "The Font Climbing Ltd",
        "operator:type": "private_for_profit",
        "sport": "climbing",
        "website": "https://www.the-font.co.uk/wandsworth"
      }
    },
    {
      "type": "way",
      "id": 837838755,
      "name": "Substation",
      "brand": null,
      "website": "https://substation.co.uk/brixton/",
      "postcode": "SW2 5DZ",
      "street": "Ellerslie Square",
      "city": "London",
      "lat": 51.4587276,
      "lon": -0.1283887,
      "raw_tags": {
        "addr:city": "London",
        "addr:postcode": "SW2 5DZ",
        "addr:street": "Ellerslie Square",
        "addr:unit": "13",
        "building": "commercial",
        "leisure": "sports_centre",
        "name": "Substation",
        "opening_hours": "Mo-Fr 07:00-22:00; Sa-Su 08:00-20:00",
        "sport": "climbing",
        "website": "https://substation.co.uk/brixton/"
      }
    },
    {
      "type": "way",
      "id": 848571598,
      "name": null,
      "brand": null,
      "website": null,
      "postcode": null,
      "street": null,
      "city": null,
      "lat": 51.489902,
      "lon": -0.1701264,
      "raw_tags": {
        "landuse": "recreation_ground",
        "sport": "climbing"
      }
    },
    {
      "type": "way",
      "id": 963992061,
      "name": "The Castle Climbing Centre",
      "brand": null,
      "website": "https://www.castle-climbing.co.uk/",
      "postcode": "N4 2HA",
      "street": "Green Lanes",
      "city": "London",
      "lat": 51.5652788,
      "lon": -0.0924406,
      "raw_tags": {
        "addr:city": "London",
        "addr:housename": "The Castle",
        "addr:postcode": "N4 2HA",
        "addr:street": "Green Lanes",
        "building": "industrial",
        "building:parts": "vertical",
        "climbing:boulder": "yes",
        "climbing:sport": "yes",
        "climbing:toprope": "yes",
        "description": "Engine House of Metropolitan Water Board",
        "fee": "yes",
        "he:inscription_date": "1972-05-16",
        "heritage": "2",
        "heritage:operator": "Historic England",
        "heritage:website": "https://historicengland.org.uk/listing/the-list/list-entry/1226755",
        "historic": "building",
        "leisure": "sports_centre",
        "listed_status": "Grade II*",
        "material": "brick",
        "name": "The Castle Climbing Centre",
        "opening_hours": "Mo-Fr 08:00-22:00, Sa-Su 09:00-20:00",
        "ref:GB:nhle": "1226755",
        "ref:GB:uprn": "10008241969",
        "sport": "climbing",
        "website": "https://www.castle-climbing.co.uk/",
        "wikidata": "Q17551191"
      }
    },
    {
      "type": "way",
      "id": 1100871919,
      "name": "The Reach",
      "brand": null,
      "website": "https://www.thereach.org.uk/",
      "postcode": "SE18 5NR",
      "street": "Harrington Way",
      "city": "London",
      "lat": 51.4944433,
      "lon": 0.0425662,
      "raw_tags": {
        "addr:city": "London",
        "addr:housename": "Unit 6",
        "addr:place": "Mellish Industrial Estate",
        "addr:postcode": "SE18 5NR",
        "addr:street": "Harrington Way",
        "contact:facebook": "https://www.facebook.com/TheReachClimbingWall/",
        "contact:instagram": "https://www.instagram.com/thereachclimbingwall/",
        "contact:twitter": "https://twitter.com/TheReachWall/",
        "email": "info@thereach.org.uk",
        "fee": "yes",
        "leisure": "sports_centre",
        "name": "The Reach",
        "opening_hours": "Mo-Fr 10:00-22:00; Sa-Su,PH 10:00-19:00",
        "phone": "+44 20 8855 9598",
        "sport": "climbing",
        "website": "https://www.thereach.org.uk/"
      }
    },
    {
      "type": "way",
      "id": 1189380721,
      "name": "VauxWall West Climbing Centre",
      "brand": null,
      "website": "https://londonclimbingcentres.co.uk/centre/vauxwest/",
      "postcode": "SW8 1SU",
      "street": "South Lambeth Road",
      "city": "London",
      "lat": 51.4850511,
      "lon": -0.1229171,
      "raw_tags": {
        "addr:city": "London",
        "addr:housename": "Arch 45b-47c",
        "addr:postcode": "SW8 1SU",
        "addr:street": "South Lambeth Road",
        "addr:unit": "Arches 47-47A",
        "alt_name": "VauxWest",
        "area": "yes",
        "check_date": "2024-08-18",
        "climbing": "bouldering",
        "climbing:boulder": "yes",
        "climbing:sport": "no",
        "climbing:toprope": "no",
        "email": "info@vauxwallclimbing.co.uk",
        "fee": "yes",
        "fhrs:authority": "Lambeth",
        "fhrs:id": "690939",
        "fhrs:inspectiondate": "2014-07-15",
        "fhrs:rating": "5",
        "leisure": "sports_centre",
        "name": "VauxWall West Climbing Centre",
        "opening_hours": "Mo-Su,PH 06:00-23:00",
        "operator": "London Climbing Centres",
        "operator:type": "private_for_profit",
        "payment:cash": "no",
        "payment:contactless": "yes",
        "payment:credit_cards": "yes",
        "payment:debit_cards": "yes",
        "payment:others": "no",
        "phone": "+44 20 7160 0248",
        "sport": "climbing",
        "website": "https://londonclimbingcentres.co.uk/centre/vauxwest/"
      }
    },
    {
      "type": "way",
      "id": 1189858234,
      "name": "Parthian Climbing Wandsworth",
      "brand": null,
      "website": "https://parthianclimbing.com/wandsworth/",
      "postcode": "SW18 4TF",
      "street": "Garratt Lane",
      "city": "London",
      "lat": 51.4549274,
      "lon": -0.1931177,
      "raw_tags": {
        "addr:city": "London",
        "addr:housenumber": "52-58",
        "addr:postcode": "SW18 4TF",
        "addr:street": "Garratt Lane",
        "email": "wandsworth@parthianclimbing.com",
        "fee": "yes",
        "fhrs:id": "1627837",
        "leisure": "sports_centre",
        "name": "Parthian Climbing Wandsworth",
        "opening_hours": "Mo-Fr 07:00-22:30; Sa-Su 08:00-21:30",
        "operator": "Parthian Climbing",
        "phone": "+44 20 3988 6624",
        "sport": "climbing",
        "website": "https://parthianclimbing.com/wandsworth/"
      }
    },
    {
      "type": "way",
      "id": 1232796440,
      "name": "Clip 'n Climb",
      "brand": null,
      "website": "https://wandsworth.clipnclimb.co.uk",
      "postcode": null,
      "street": null,
      "city": null,
      "lat": 51.4565792,
      "lon": -0.1914057,
      "raw_tags": {
        "check_date": "2025-08-02",
        "leisure": "sports_centre",
        "name": "Clip 'n Climb",
        "sport": "climbing",
        "website": "https://wandsworth.clipnclimb.co.uk"
      }
    },
    {
      "type": "way",
      "id": 1363313069,
      "name": "Clip n' Climb",
      "brand": null,
      "website": "https://theo2.clipnclimb.co.uk/",
      "postcode": null,
      "street": null,
      "city": null,
      "lat": 51.5038541,
      "lon": 0.0027843,
      "raw_tags": {
        "leisure": "sports_centre",
        "name": "Clip n' Climb",
        "sport": "climbing",
        "website": "https://theo2.clipnclimb.co.uk/"
      }
    }
  ]
}