{
  "category": "amusement_arcade",
  "area": "Greater London",
  "count": 34,
  "elements": [
    {
      "type": "node",
      "id": 2073631768,
      "name": "The Heart of Gaming",
      "brand": null,
      "website": "https://www.heartofgaming.co.uk/",
      "postcode": "CR0 1UG",
      "street": "North End",
      "city": "Croydon",
      "lat": 51.3753711,
      "lon": -0.1009464,
      "raw_tags": {
        "addr:city": "Croydon",
        "addr:housenumber": "42-46",
        "addr:postcode": "CR0 1UG",
        "addr:street": "North End",
        "leisure": "amusement_arcade",
        "name": "The Heart of Gaming",
        "source": "survey",
        "website": "https://www.heartofgaming.co.uk/",
        "wikidata": "Q22909340",
        "wikipedia": "en:The Heart of Gaming"
      }
    },
    {
      "type": "node",
      "id": 3397886782,
      "name": "Novelty Automation",
      "brand": null,
      "website": "https://novelty-automation.com/",
      "postcode": "WC1R 4AX",
      "street": "Princeton Street",
      "city": "London",
      "lat": 51.5197601,
      "lon": -0.1165252,
      "raw_tags": {
        "addr:city": "London",
        "addr:housenumber": "1a",
        "addr:postcode": "WC1R 4AX",
        "addr:street": "Princeton Street",
        "leisure": "amusement_arcade",
        "name": "Novelty Automation",
        "opening_hours": "Tu,We,Fr,Sa 11:00-18:00; Th 12:00-20:00; Su 12:00-18:00",
        "operator": "Tim Hunkin",
        "tourism": "attraction",
        "website": "https://novelty-automation.com/",
        "wikidata": "Q55098971",
        "wikipedia": "en:Novelty Automation"
      }
    },
    {
      "type": "node",
      "id": 3888985036,
      "name": "Gravity Max",
      "brand": null,
      "website": "https://gravity-global.com/max/wandsworth",
      "postcode": "SW18 4TF",
      "street": "Wandsworth High Street",
      "city": "London",
      "lat": 51.4560672,
      "lon": -0.1933351,
      "raw_tags": {
        "addr:city": "London",
        "addr:postcode": "SW18 4TF",
        "addr:street": "Wandsworth High Street",
        "addr:unit": "Unit 10",
        "fhrs:authority": "Wandsworth",
        "fhrs:id": "1573594",
        "fhrs:local_authority_id": "PI/000459894",
        "leisure": "amusement_arcade",
        "level": "0",
        "name": "Gravity Max",
        "opening_hours": "Su-Th 08:30-23:00, Fr,Sa 08:30-00:30",
        "website": "https://gravity-global.com/max/wandsworth"
      }
    },
    {
      "type": "node",
      "id": 5480809514,
      "name": "Las Vegas Arcade",
      "brand": null,
      "website": "https://www.lasvegasarcadesoho.co.uk/",
      "postcode": null,
      "street": "Wardour Street",
      "city": null,
      "lat": 51.5126831,
      "lon": -0.1335662,
      "raw_tags": {
        "addr:housenumber": "89-91",
        "addr:street": "Wardour Street",
        "description": "Gaming machines, American pool, video games, casino.",
        "leisure": "amusement_arcade",
        "name": "Las Vegas Arcade",
        "website": "https://www.lasvegasarcadesoho.co.uk/"
      }
    },
    {
      "type": "node",
      "id": 5564208435,
      "name": "Flip Out London",
      "brand": null,
      "website": null,
      "postcode": "CR0 4AA",
      "street": "Mill Lane",
      "city": "Croydon",
      "lat": 51.3710622,
      "lon": -0.1230054,
      "raw_tags": {
        "addr:city": "Croydon",
        "addr:postcode": "CR0 4AA",
        "addr:street": "Mill Lane",
        "addr:unit": "Unit 10",
        "leisure": "amusement_arcade",
        "name": "Flip Out London"
      }
    },
    {
      "type": "node",
      "id": 6484565585,
      "name": "Admiral Slots Gaming Online",
      "brand": "Admiral",
      "website": "https://www.admiralslots.co.uk/venues/west-ealing/",
      "postcode": null,
      "street": null,
      "city": null,
      "lat": 51.5104026,
      "lon": -0.3235998,
      "raw_tags": {
        "brand": "Admiral",
        "brand:wikidata": "Q25205850",
        "check_date": "2025-06-05",
        "leisure": "amusement_arcade",
        "level": "0",
        "name": "Admiral Slots Gaming Online",
        "website": "https://www.admiralslots.co.uk/venues/west-ealing/",
        "wheelchair": "yes"
      }
    },
    {
      "type": "node",
      "id": 7717850285,
      "name": "NQ64",
      "brand": null,
      "website": "https://nq64.co.uk/soho",
      "postcode": "W1F 8SP",
      "street": "Berwick Street",
      "city": "London",
      "lat": 51.5155639,
      "lon": -0.1363857,
      "raw_tags": {
        "addr:city": "London",
        "addr:housenumber": "53-54",
        "addr:postcode": "W1F 8SP",
        "addr:street": "Berwick Street",
        "amenity": "bar",
        "leisure": "amusement_arcade",
        "name": "NQ64",
        "opening_hours": "Mo-Fr 15:00-27:00; Sa 12:00-27:00; Su 12:00-24:00",
        "website": "https://nq64.co.uk/soho"
      }
    },
    {
      "type": "node",
      "id": 9143453385,
      "name": "Golden Slots",
      "brand": null,
      "website": null,
      "postcode": "N4 1AG",
      "street": "Grand Parade",
      "city": "London",
      "lat": 51.579181,
      "lon": -0.0989044,
      "raw_tags": {
        "addr:city": "London",
        "addr:housenumber": "48",
        "addr:postcode": "N4 1AG",
        "addr:street": "Grand Parade",
        "addr:suburb": "Harringay",
        "leisure": "amusement_arcade",
        "name": "Golden Slots"
      }
    },
    {
      "type": "node",
      "id": 9422368118,
      "name": "Four Quarters",
      "brand": "Four Quarters",
      "website": "https://fourquarters.bar/location/elephant-castle-arcade-bar/",
      "postcode": "SE17 1AZ",
      "street": "Ash Avenue",
      "city": "London",
      "lat": 51.4934121,
      "lon": -0.0951789,
      "raw_tags": {
        "addr:city": "London",
        "addr:housenumber": "20",
        "addr:postcode": "SE17 1AZ",
        "addr:street": "Ash Avenue",
        "bar": "yes",
        "brand": "Four Quarters",
        "brand:wikidata": "Q119701878",
        "dog": "leashed",
        "leisure": "amusement_arcade",
        "name": "Four Quarters",
        "reservation": "yes",
        "website": "https://fourquarters.bar/location/elephant-castle-arcade-bar/"
      }
    },
    {
      "type": "node",
      "id": 9422825096,
      "name": "DNA VR",
      "brand": null,
      "website": "https://www.dnavr.co.uk/",
      "postcode": "N7 9LR",
      "street": "York Way",
      "city": "London",
      "lat": 51.5486695,
      "lon": -0.1283558,
      "raw_tags": {
        "addr:city": "London",
        "addr:housename": "Units 1 & 2",
        "addr:housenumber": "400-404",
        "addr:postcode": "N7 9LR",
        "addr:street": "York Way",
        "leisure": "amusement_arcade",
        "name": "DNA VR",
        "website": "https://www.dnavr.co.uk/"
      }
    },
    {
      "type": "node",
      "id": 9588562593,
      "name": "Merkur Slots",
      "brand": null,
      "website": null,
      "postcode": "W13 9DA",
      "street": "Broadway",
      "city": "London",
      "lat": 51.5102746,
      "lon": -0.3227898,
      "raw_tags": {
        "addr:city": "London",
        "addr:floor": "G",
        "addr:housenumber": "25",
        "addr:postcode": "W13 9DA",
        "addr:street": "Broadway",
        "brand:wikidata": "Q22000565",
        "check_date": "2025-06-05",
        "leisure": "amusement_arcade",
        "level": "0",
        "name": "Merkur Slots",
        "wheelchair": "yes"
      }
    },
    {
      "type": "node",
      "id": 10076908424,
      "name": "Laser Quest Romford",
      "brand": null,
      "website": "https://laserquestromford.com",
      "postcode": "RM1 1JL",
      "street": "High Street",
      "city": "Romford",
      "lat": 51.5768833,
      "lon": 0.177858,
      "raw_tags": {
        "addr:city": "Romford",
        "addr:housenumber": "57-59",
        "addr:postcode": "RM1 1JL",
        "addr:street": "High Street",
        "description": "Laser Quest Romford welcomes you to take part in the ultimate Laser Quest sci-fi action adventure!",
        "email": "info@laserquestromford.com",
        "leisure": "amusement_arcade",
        "name": "Laser Quest Romford",
        "phone": "+44 1708 579929",
        "website": "https://laserquestromford.com"
      }
    },
    {
      "type": "node",
      "id": 10126676721,
      "name": "Boom Battle Bar",
      "brand": null,
      "website": null,
      "postcode": null,
      "street": null,
      "city": null,
      "lat": 51.5120454,
      "lon": -0.3064028,
      "raw_tags": {
        "check_date": "2023-12-22",
        "leisure": "amusement_arcade",
        "level": "0",
        "name": "Boom Battle Bar",
        "wheelchair": "yes"
      }
    },
    {
      "type": "node",
      "id": 10142424096,
      "name": "New Meta",
      "brand": null,
      "website": "https://playnewmeta.gg/",
      "postcode": null,
      "street": null,
      "city": null,
      "lat": 51.5384505,
      "lon": -0.103236,
      "raw_tags": {
        "leisure": "amusement_arcade",
        "name": "New Meta",
        "website": "https://playnewmeta.gg/"
      }
    },
    {
      "type": "node",
      "id": 10236390321,
      "name": "Sandbox VR",
      "brand": null,
      "website": "https://sandboxvr.com/",
      "postcode": null,
      "street": null,
      "city": null,
      "lat": 51.516517,
      "lon": -0.1243807,
      "raw_tags": {
        "leisure": "amusement_arcade",
        "name": "Sandbox VR",
        "virtual_reality": "yes",
        "website": "https://sandboxvr.com/"
      }
    },
    {
      "type": "node",
      "id": 10692936225,
      "name": "Fairgame",
      "brand": null,
      "website": "https://www.wearefairgame.com/",
      "postcode": "E14 4DH",
      "street": "Fisherman's Walk",
      "city": "London",
      "lat": 51.506113,
      "lon": -0.0221117,
      "raw_tags": {
        "addr:city": "London",
        "addr:housenumber": "25 - 35",
        "addr:postcode": "E14 4DH",
        "addr:street": "Fisherman's Walk",
        "contact:phone": "+44 204 599 3666",
        "leisure": "amusement_arcade",
        "name": "Fairgame",
        "opening_hours": "Tu-Th 11:30-24:00; Fr-Sa 11:30-25:00; Su 11:30-23:00",
        "website": "https://www.wearefairgame.com/"
      }
    },
    {
      "type": "node",
      "id": 10830816457,
      "name": "Cashino",
      "brand": null,
      "website": null,
      "postcode": null,
      "street": null,
      "city": null,
      "lat": 51.5114568,
      "lon": -0.3760256,
      "raw_tags": {
        "brand:wikidata": "Q22000565",
        "leisure": "amusement_arcade",
        "name": "Cashino"
      }
    },
    {
      "type": "node",
      "id": 11047352456,
      "name": "Babylon Park",
      "brand": null,
      "website": "https://www.babylonpark.com/",
      "postcode": null,
      "street": null,
      "city": null,
      "lat": 51.5422144,
      "lon": -0.14498,
      "raw_tags": {
        "leisure": "amusement_arcade",
        "name": "Babylon Park",
        "website": "https://www.babylonpark.com/"
      }
    },
    {
      "type": "node",
      "id": 11169984696,
      "name": "Reels Casino Slots",
      "brand": null,
      "website": null,
      "postcode": null,
      "street": null,
      "city": null,
      "lat": 51.5139386,
      "lon": -0.4732366,
      "raw_tags": {
        "leisure": "amusement_arcade",
        "name": "Reels Casino Slots"
      }
    },
    {
      "type": "node",
      "id": 11217586440,
      "name": "Immersive Gamebox",
      "brand": null,
      "website": "https://immersivegamebox.com/locations/southbank-london/",
      "postcode": "SE1 0XN",
      "street": "Scoresby Street",
      "city": "London",
      "lat": 51.5042342,
      "lon": -0.1034685,
      "raw_tags": {
        "addr:city": "London",
        "addr:housename": "Arch 3",
        "addr:housenumber": "83",
        "addr:postcode": "SE1 0XN",
        "addr:street": "Scoresby Street",
        "email": "help@immersivegamebox.com",
        "leisure": "amusement_arcade",
        "name": "Immersive Gamebox",
        "opening_hours": "Mo,Tu 10:00-22:00; We 10:00-23:00; Th 11:00-23:00; Fr,Sa 10:00-23:00, Su 10:00-20:00",
        "operator": "Immersive Gamebox",
        "website": "https://immersivegamebox.com/locations/southbank-london/"
      }
    },
    {
      "type": "node",
      "id": 12180060330,
      "name": "Agora Gaming",
      "brand": null,
      "website": null,
      "postcode": null,
      "street": "High Street Harlesden",
      "city": "London",
      "lat": 51.5363556,
      "lon": -0.2481922,
      "raw_tags": {
        "addr:city": "London",
        "addr:housenumber": "10",
        "addr:street": "High Street Harlesden",
        "addr:substreet": "Bank Buildings",
        "leisure": "amusement_arcade",
        "level": "0",
        "name": "Agora Gaming",
        "source": "Bing street side imagery"
      }
    },
    {
      "type": "node",
      "id": 12569551425,
      "name": "Four Quarters",
      "brand": "Four Quarters",
      "website": "https://fourquarters.bar/location/arcade-bar-south-london/",
      "postcode": "SE15 4TP",
      "street": "Rye Lane",
      "city": "London",
      "lat": 51.4680069,
      "lon": -0.0670145,
      "raw_tags": {
        "addr:city": "London",
        "addr:country": "GB",
        "addr:housenumber": "187",
        "addr:postcode": "SE15 4TP",
        "addr:street": "Rye Lane",
        "amenity": "bar",
        "bar": "yes",
        "brand": "Four Quarters",
        "brand:wikidata": "Q119701878",
        "brewery": "yes",
        "dog": "leashed",
        "fhrs:id": "708633",
        "food": "yes",
        "leisure": "amusement_arcade",
        "name": "Four Quarters",
        "outdoor_seating": "no",
        "reservation": "yes",
        "website": "https://fourquarters.bar/location/arcade-bar-south-london/"
      }
    },
    {
      "type": "node",
      "id": 12633723828,
      "name": "FreePlayCity",
      "brand": null,
      "website": "https://freeplaycity.com/",
      "postcode": "N4 1DN",
      "street": "Eade Road",
      "city": "London",
      "lat": 51.5754113,
      "lon": -0.0877368,
      "raw_tags": {
        "addr:city": "London",
        "addr:housenumber": "199",
        "addr:postcode": "N4 1DN",
        "addr:street": "Eade Road",
        "leisure": "amusement_arcade",
        "name": "FreePlayCity",
        "opening_hours": "Th-Fr 17:00-23:00; Sa-Su 13:00-20:00",
        "website": "https://freeplaycity.com/"
      }
    },
    {
      "type": "way",
      "id": 197065389,
      "name": "Palace Amusements",
      "brand": null,
      "website": null,
      "postcode": "CR0 1TG",
      "street": "North End",
      "city": "Croydon",
      "lat": 51.3752243,
      "lon": -0.1013765,
      "raw_tags": {
        "addr:city": "Croydon",
        "addr:housenumber": "57",
        "addr:postcode": "CR0 1TG",
        "addr:street": "North End",
        "building": "retail",
        "leisure": "amusement_arcade",
        "name": "Palace Amusements",
        "source": "survey"
      }
    },
    {
      "type": "way",
      "id": 241397035,
      "name": "Reel Time",
      "brand": null,
      "website": "https://citikey.uk/display/reel-time-DTRHV",
      "postcode": "W2 1DH",
      "street": "Edgware Road",
      "city": "London",
      "lat": 51.518524,
      "lon": -0.1675984,
      "raw_tags": {
        "addr:city": "London",
        "addr:country": "GB",
        "addr:housenumber": "212",
        "addr:postcode": "W2 1DH",
        "addr:street": "Edgware Road",
        "building": "yes",
        "building:colour": "white",
        "building:levels": "4",
        "building:material": "plaster",
        "check_date": "2023-04-22",
        "leisure": "amusement_arcade",
        "name": "Reel Time",
        "website": "https://citikey.uk/display/reel-time-DTRHV"
      }
    },
    {
      "type": "way",
      "id": 247912778,
      "name": "Silver Time",
      "brand": null,
      "website": null,
      "postcode": null,
      "street": null,
      "city": null,
      "lat": 51.5538616,
      "lon": -0.2935976,
      "raw_tags": {
        "area": "yes",
        "leisure": "amusement_arcade",
        "level": "0",
        "name": "Silver Time",
        "source": "photograph"
      }
    },
    {
      "type": "way",
      "id": 291650391,
      "name": "Funland",
      "brand": null,
      "website": null,
      "postcode": null,
      "street": null,
      "city": null,
      "lat": 51.5243158,
      "lon": -0.1235314,
      "raw_tags": {
        "building": "yes",
        "check_date": "2025-08-17",
        "leisure": "amusement_arcade",
        "name": "Funland",
        "opening_hours": "Mo-Su 10:00-22:00",
        "wheelchair": "yes"
      }
    },
    {
      "type": "way",
      "id": 435056789,
      "name": "Voyager",
      "brand": null,
      "website": null,
      "postcode": null,
      "street": null,
      "city": null,
      "lat": 51.4712372,
      "lon": -0.4585112,
      "raw_tags": {
        "leisure": "amusement_arcade",
        "level": "0",
        "name": "Voyager"
      }
    },
    {
      "type": "way",
      "id": 469649787,
      "name": "Otherworld",
      "brand": null,
      "website": "https://www.other.world",
      "postcode": null,
      "street": "Acton Mews",
      "city": "London",
      "lat": 51.5370688,
      "lon": -0.0756567,
      "raw_tags": {
        "addr:city": "London",
        "addr:housenumber": "336",
        "addr:street": "Acton Mews",
        "building": "yes",
        "contact:email": "contact@other.world",
        "contact:facebook": "https://www.facebook.com/otherworld",
        "contact:phone": "+44 20 8050 1550",
        "contact:twitter": "otherworld",
        "leisure": "amusement_arcade",
        "name": "Otherworld",
        "virtual_reality": "yes",
        "website": "https://www.other.world"
      }
    },
    {
      "type": "way",
      "id": 668568686,
      "name": "Four Quarters",
      "brand": "Four Quarters",
      "website": "https://fourquarters.bar",
      "postcode": "E15 2GW",
      "street": "East Bay Lane",
      "city": "London",
      "lat": 51.5469335,
      "lon": -0.0240769,
      "raw_tags": {
        "addr:city": "London",
        "addr:housenumber": "24",
        "addr:postcode": "E15 2GW",
        "addr:street": "East Bay Lane",
        "addr:unit": "Unit 8",
        "bar": "yes",
        "branch": "Here East",
        "brand": "Four Quarters",
        "brand:wikidata": "Q119701878",
        "check_date": "2023-06-18",
        "cuisine": "pizza",
        "diet:vegan": "yes",
        "dog": "yes",
        "fhrs:id": "1374768",
        "food": "yes",
        "leisure": "amusement_arcade",
        "name": "Four Quarters",
        "opening_hours": "Mo-We 12:00-23:30; Th 12:00-00:00; Fr-Sa 12:00-00:30; Su 12:00-21:00",
        "payment:cash": "no",
        "payment:credit_cards": "yes",
        "payment:debit_cards": "yes",
        "phone": "+44 7722 144780",
        "toilets": "yes",
        "toilets:wheelchair": "yes",
        "website": "https://fourquarters.bar",
        "wheelchair": "yes"
      }
    },
    {
      "type": "way",
      "id": 744583934,
      "name": "Showman Amusements",
      "brand": null,
      "website": null,
      "postcode": "E15 4PH",
      "street": "West Ham Lane",
      "city": "London",
      "lat": 51.5407311,
      "lon": 0.0022081,
      "raw_tags": {
        "addr:city": "London",
        "addr:housenumber": "1",
        "addr:postcode": "E15 4PH",
        "addr:street": "West Ham Lane",
        "addr:suburb": "Stratford",
        "building:part": "retail",
        "check_date": "2023-04-17",
        "leisure": "amusement_arcade",
        "level": "0",
        "name": "Showman Amusements"
      }
    },
    {
      "type": "way",
      "id": 1240494141,
      "name": "Virgin Media Gamepad",
      "brand": null,
      "website": "https://home.virginmedia.com/virgin-tv-edit/tips-and-tricks/virgin-media-gamepad",
      "postcode": null,
      "street": null,
      "city": null,
      "lat": 51.5022475,
      "lon": 0.0035547,
      "raw_tags": {
        "addr:unit": "L6",
        "check_date": "2025-02-27",
        "indoor": "room",
        "leisure": "amusement_arcade",
        "level": "0",
        "name": "Virgin Media Gamepad",
        "opening_hours": "\"by appointment\"",
        "website": "https://home.virginmedia.com/virgin-tv-edit/tips-and-tricks/virgin-media-gamepad"
      }
    },
    {
      "type": "way",
      "id": 1294997831,
      "name": "Gravity Max",
      "brand": null,
      "website": null,
      "postcode": "E20 1GL",
      "street": "Chestnut Plaza",
      "city": "London",
      "lat": 51.5421094,
      "lon": -0.0068512,
      "raw_tags": {
        "addr:city": "London",
        "addr:postcode": "E20 1GL",
        "addr:street": "Chestnut Plaza",
        "addr:unit": "1-7",
        "building": "yes",
        "building:levels": "4",
        "fhrs:id": "1723256",
        "leisure": "amusement_arcade",
        "level": "0;1;2;3",
        "name": "Gravity Max",
        "planning:ref:lldc": "15/00358/OUT;22/00068/FUL"
      }
    },
    {
      "type": "way",
      "id": 1360397219,
      "name": "F1 Box",
      "brand": null,
      "website": null,
      "postcode": null,
      "street": "Montfichet Road",
      "city": "London",
      "lat": 51.5434643,
      "lon": -0.0066862,
      "raw_tags": {
        "addr:city": "London",
        "addr:housename": "Westfield Stratford City",
        "addr:street": "Montfichet Road",
        "addr:unit:ref": "SU1073",
        "check_date": "2025-08-26",
        "disused:shop": "clothes",
        "leisure": "amusement_arcade",
        "level": "0",
        "name": "F1 Box",
        "room": "shop",
        "was:name": "NA Menswear;G-Star Raw"
      }
    }
  ]
}